{"type":"FeatureCollection","features":[{"type":"Feature","properties":{"name":"Brno"},"geometry":{"type":"Polygon","coordinates":[[[16.4279898,49.2166657],[16.4291047,49.2162162],[16.4298676,49.2166464],[16.4310469,49.2166715],[16.4342993,49.2153783],[16.4346632,49.2151111],[16.4350331,49.2138563],[16.4368114,49.2123388],[16.4383526,49.211942],[16.4390319,49.2124579],[16.4411165,49.212561],[16.4463596,49.210133],[16.4470003,49.2092989],[16.4468803,49.2083492],[16.4448644,49.207418],[16.4458213,49.2060377],[16.4458039,49.2050203],[16.447439,49.2042437],[16.4482252,49.2023448],[16.4489756,49.2016602],[16.4506797,49.2012931],[16.4527225,49.1999611],[16.4528004,49.1992601],[16.4545314,49.197443],[16.4558624,49.1944901],[16.4579751,49.1934243],[16.4642208,49.1924629],[16.4645488,49.1921632],[16.4674254,49.1921805],[16.4690384,49.1925565],[16.4744914,49.1925694],[16.4749152,49.1932526],[16.4745414,49.1940121],[16.4745663,49.1957817],[16.4731809,49.1960663],[16.471838,49.1980822],[16.4740783,49.1985882],[16.4747033,49.1981403],[16.4756279,49.1980528],[16.4771044,49.1985303],[16.478259,49.1982705],[16.4795275,49.1992006],[16.4822139,49.1978282],[16.4829231,49.1960101],[16.4848631,49.195676],[16.4853994,49.1946285],[16.4867708,49.1941757],[16.4888046,49.1959711],[16.4919443,49.1963245],[16.4931841,49.1961238],[16.4940458,49.1956151],[16.4944839,49.194835],[16.4942909,49.1940964],[16.4947825,49.1940267],[16.4948812,49.1919335],[16.4944872,49.190974],[16.4946146,49.1867445],[16.4950703,49.1861209],[16.4975329,49.1849959],[16.4968765,49.1844861],[16.5007558,49.1828559],[16.5098663,49.1798472],[16.5128652,49.1793108],[16.5141758,49.1782148],[16.5148568,49.1784259],[16.5182604,49.1757676],[16.5181621,49.1753495],[16.5186885,49.1745516],[16.5179685,49.1714212],[16.5208326,49.1697881],[16.5259454,49.1676147],[16.5294219,49.1643202],[16.5311396,49.1656858],[16.5318175,49.1666251],[16.5317346,49.1669309],[16.5334634,49.1675028],[16.5379457,49.16791],[16.540662,49.1698246],[16.5432661,49.1686068],[16.5450402,49.1702238],[16.5489336,49.1686774],[16.5478139,49.1676262],[16.5489361,49.1669472],[16.5497772,49.1659524],[16.5508268,49.1657271],[16.5515367,49.1650282],[16.5532642,49.1643683],[16.5528216,49.1637851],[16.5539794,49.1623428],[16.5534641,49.1603666],[16.5548074,49.1586298],[16.5548344,49.1568123],[16.5577994,49.155564],[16.5564852,49.1541242],[16.5584316,49.1528644],[16.5612049,49.1522489],[16.5624612,49.1538847],[16.5640715,49.1536892],[16.5639609,49.1544021],[16.5672478,49.1543694],[16.5737879,49.1558243],[16.5766341,49.156886],[16.5741166,49.1592599],[16.5754571,49.1599353],[16.5745691,49.1613537],[16.5751378,49.161566],[16.5754341,49.1611573],[16.5776202,49.1617478],[16.5782824,49.1601507],[16.5787735,49.1602739],[16.5792164,49.1595239],[16.5819808,49.1597628],[16.5820032,49.1593147],[16.5852651,49.159553],[16.5938584,49.158805],[16.5936289,49.1575013],[16.5950303,49.1574757],[16.590377,49.1548091],[16.5921657,49.1546421],[16.5922135,49.1525349],[16.5963412,49.1521455],[16.5963187,49.1512259],[16.5952993,49.1474533],[16.5938942,49.1443874],[16.5932485,49.1421653],[16.5896729,49.1358311],[16.5991458,49.1349781],[16.5992019,49.1363419],[16.5988435,49.1363864],[16.5994272,49.1374122],[16.6034951,49.1372052],[16.6033298,49.1381008],[16.6064636,49.1386171],[16.607108,49.1380028],[16.6087994,49.1374793],[16.6114651,49.1368513],[16.6158146,49.1363843],[16.6158734,49.1359601],[16.6242825,49.1373664],[16.6316829,49.1373031],[16.6320513,49.1423534],[16.6339194,49.1460804],[16.6402943,49.1450893],[16.6395996,49.1340279],[16.6420138,49.1328612],[16.6420073,49.1318156],[16.6322696,49.1318434],[16.6318644,49.1255078],[16.6267576,49.1254677],[16.6263931,49.1194089],[16.6241531,49.1140561],[16.6243434,49.1127537],[16.6263143,49.1098796],[16.6265711,49.1101449],[16.6352612,49.1100065],[16.6337398,49.1125714],[16.6324846,49.1138226],[16.6322265,49.1146897],[16.6322477,49.1164966],[16.633669,49.1177637],[16.6378517,49.1185149],[16.6508619,49.1172371],[16.6617581,49.1145313],[16.6742895,49.1146307],[16.6741952,49.1157664],[16.6797883,49.1155235],[16.6808142,49.1191934],[16.6823449,49.11892],[16.6839392,49.1191015],[16.6862237,49.1260049],[16.6897005,49.1246501],[16.6928081,49.1273082],[16.6968843,49.1282304],[16.6999989,49.1267326],[16.7042853,49.1271853],[16.7062554,49.1282054],[16.7077059,49.1300664],[16.7080971,49.132984],[16.7098757,49.1404975],[16.7091082,49.1435001],[16.7119435,49.1434437],[16.7123716,49.1455495],[16.7038702,49.1442301],[16.70337,49.1453257],[16.7029498,49.1453588],[16.7001869,49.1485019],[16.6988179,49.1545164],[16.6964909,49.1613108],[16.6971356,49.1613049],[16.6955246,49.1632651],[16.704826,49.171993],[16.694173,49.1763494],[16.693806,49.179173],[16.6949244,49.1793405],[16.6943558,49.1850544],[16.7052245,49.1868318],[16.7083788,49.1880266],[16.7073081,49.1899152],[16.7136718,49.1917865],[16.7139506,49.191103],[16.7172203,49.191764],[16.7207908,49.1934018],[16.7204582,49.1943372],[16.7182596,49.1953531],[16.7173472,49.1962692],[16.7182785,49.1967295],[16.7185241,49.1988446],[16.7172422,49.200894],[16.716672,49.2036802],[16.7183983,49.2058356],[16.7187233,49.2066614],[16.7184559,49.2075131],[16.7172692,49.2082998],[16.7146433,49.208925],[16.7130816,49.2096331],[16.7123861,49.2105298],[16.7124688,49.2111917],[16.7121348,49.2117742],[16.7133766,49.2122465],[16.7142823,49.213384],[16.7162327,49.2127541],[16.7181041,49.2130981],[16.719865,49.2170615],[16.7182582,49.2183415],[16.7137901,49.2191766],[16.7132026,49.2197154],[16.7141727,49.2207286],[16.7148577,49.2209344],[16.7176528,49.2198228],[16.7187984,49.2198858],[16.7187165,49.2206775],[16.7171672,49.2214239],[16.7162882,49.2225138],[16.7161351,49.2244504],[16.715442,49.2254343],[16.7155272,49.2265797],[16.7165588,49.2279387],[16.7174355,49.2283634],[16.7174108,49.2287482],[16.7182346,49.2296146],[16.7206321,49.2304008],[16.7204322,49.2318021],[16.719825,49.2329136],[16.7204362,49.2331729],[16.7215818,49.23272],[16.7228123,49.2331372],[16.722327,49.2334074],[16.7250667,49.2344534],[16.7269323,49.2370932],[16.7276518,49.2369249],[16.7278346,49.2371338],[16.7274287,49.238073],[16.7275631,49.2394577],[16.726864,49.2405254],[16.7270993,49.241116],[16.726895,49.2415554],[16.7249281,49.2435727],[16.7248373,49.2442153],[16.7241591,49.2448952],[16.7168828,49.2435245],[16.7135169,49.2439084],[16.7130722,49.2433482],[16.7129643,49.2414316],[16.7115969,49.2401207],[16.7101237,49.2406043],[16.7087073,49.2406277],[16.7063438,49.2361796],[16.7065999,49.2337077],[16.7063242,49.2330728],[16.7023282,49.2312695],[16.7000982,49.2294165],[16.6984706,49.2285367],[16.6910355,49.2262548],[16.6898589,49.2253412],[16.6873716,49.2244247],[16.6834413,49.2213116],[16.6814848,49.2178152],[16.6804829,49.2180562],[16.6797864,49.2171824],[16.6775213,49.2181146],[16.6760827,49.2180304],[16.6752438,49.218796],[16.6730991,49.2192788],[16.6722307,49.2200052],[16.6706156,49.2205514],[16.6704978,49.2216021],[16.668156,49.2217644],[16.6668285,49.2226301],[16.6655761,49.2243859],[16.6646691,49.2249726],[16.6662847,49.2267652],[16.6668944,49.2286264],[16.667985,49.2300024],[16.6716336,49.2315463],[16.6733002,49.2331302],[16.6732543,49.2335291],[16.6721876,49.2341003],[16.6696113,49.2339965],[16.6680611,49.2344083],[16.6676419,49.2351457],[16.6660435,49.2358862],[16.6657125,49.2366349],[16.6658982,49.2380895],[16.6651141,49.2392111],[16.6585271,49.2405594],[16.6540916,49.2426155],[16.6485355,49.2446165],[16.6477832,49.2453006],[16.6439706,49.2450894],[16.6413055,49.2470597],[16.6416014,49.2472734],[16.6414032,49.247912],[16.6419488,49.2492107],[16.6424851,49.2503452],[16.6430837,49.2508391],[16.6453836,49.2515326],[16.6476425,49.2511595],[16.6462703,49.253454],[16.6464595,49.2543193],[16.6452474,49.2557772],[16.6447037,49.2571193],[16.6452245,49.2578143],[16.6451842,49.2585211],[16.6434545,49.2604787],[16.6427249,49.2621217],[16.6381791,49.2651233],[16.6375743,49.2652182],[16.6371027,49.2658954],[16.6370444,49.2670936],[16.6357684,49.2682275],[16.6295967,49.2687775],[16.6287287,49.2684724],[16.6280693,49.2688236],[16.627236,49.2702848],[16.6262343,49.2709129],[16.6252922,49.2710307],[16.6246862,49.2734213],[16.6235799,49.2747428],[16.6232312,49.2749213],[16.6197174,49.274377],[16.6188901,49.2758713],[16.6187958,49.2770931],[16.6175743,49.2781198],[16.6193065,49.2784705],[16.6213708,49.2783756],[16.6217806,49.2792664],[16.6235718,49.2800851],[16.6245821,49.2810526],[16.6233629,49.283105],[16.6338246,49.2815253],[16.6335829,49.282321],[16.6422914,49.284234],[16.6489415,49.2867388],[16.6455253,49.2877794],[16.6420179,49.2876196],[16.6413464,49.2878734],[16.6390158,49.2903559],[16.6335891,49.2918872],[16.6300617,49.2943708],[16.6305677,49.2930574],[16.6300467,49.2918741],[16.6302108,49.2909156],[16.6286844,49.2907913],[16.6290142,49.2896337],[16.6288342,49.289272],[16.6275073,49.2886449],[16.6268343,49.2886529],[16.6270629,49.2874907],[16.6263571,49.2861904],[16.6299593,49.2854255],[16.6279675,49.2851926],[16.6252934,49.2851746],[16.6221636,49.2858575],[16.6224969,49.286686],[16.6214776,49.2875897],[16.6212593,49.2890575],[16.6194911,49.290727],[16.6195495,49.2911717],[16.6189494,49.2906639],[16.6163882,49.2915045],[16.6133509,49.2915507],[16.6075367,49.2900232],[16.6060478,49.2892718],[16.6050848,49.2892862],[16.6020399,49.289993],[16.6016675,49.2906259],[16.5989075,49.2923093],[16.5993195,49.2928458],[16.5992206,49.2935597],[16.5976398,49.2920081],[16.5961368,49.2873526],[16.5954444,49.2860768],[16.5948854,49.2857245],[16.5932346,49.285285],[16.5916745,49.2857256],[16.5903157,49.2855645],[16.5884488,49.2833466],[16.5859783,49.283264],[16.5843777,49.2836068],[16.5837096,49.2831232],[16.5812066,49.2835152],[16.5795548,49.283342],[16.5787545,49.2829477],[16.5787546,49.2823579],[16.5797323,49.2806381],[16.5793529,49.2782723],[16.5803337,49.2771664],[16.5770487,49.2775083],[16.5754238,49.2768519],[16.5745934,49.275541],[16.5768851,49.2747086],[16.5777051,49.2740626],[16.5769321,49.2729546],[16.5754435,49.2728767],[16.5749375,49.2709027],[16.5694463,49.2700031],[16.569199,49.2707216],[16.5666129,49.2706478],[16.5662894,49.2718598],[16.5646116,49.2717085],[16.564243,49.2703845],[16.5632578,49.26919],[16.5627882,49.2687525],[16.5611991,49.2684152],[16.5612072,49.2680652],[16.56174,49.2677772],[16.5627146,49.2678672],[16.5625286,49.2669999],[16.5634771,49.2661073],[16.5628204,49.26541],[16.5601033,49.2655293],[16.5592668,49.2660805],[16.5583497,49.2658793],[16.5589682,49.2654938],[16.5581681,49.2653927],[16.5565461,49.265772],[16.5558783,49.2663842],[16.5552453,49.2661167],[16.5551534,49.26568],[16.5533216,49.2658204],[16.554772,49.2654125],[16.5563434,49.2642865],[16.556044,49.2637696],[16.5576393,49.2641565],[16.5590528,49.2641149],[16.5608497,49.2634708],[16.5610852,49.2620718],[16.5619649,49.2612176],[16.5615499,49.2609539],[16.5603462,49.2611313],[16.5593568,49.260406],[16.5583506,49.260588],[16.5582734,49.2601281],[16.560029,49.2589645],[16.5581384,49.2587375],[16.5582217,49.2577824],[16.5588138,49.256732],[16.558127,49.2563252],[16.5585494,49.2549424],[16.5622019,49.2535627],[16.5572725,49.2534369],[16.552845,49.252806],[16.5525538,49.2532578],[16.5525105,49.2557177],[16.5528119,49.25725],[16.5524892,49.2583802],[16.5512295,49.2590131],[16.5494361,49.259275],[16.546336,49.2585571],[16.5445166,49.2571285],[16.542789,49.256476],[16.5425158,49.2559092],[16.5417058,49.2554966],[16.5415739,49.2539824],[16.5426618,49.2525037],[16.541336,49.25181],[16.5413518,49.2512903],[16.5408015,49.2507893],[16.5399972,49.2505504],[16.5394304,49.2506924],[16.5391352,49.2515105],[16.5384974,49.2553892],[16.535638,49.2557958],[16.5319936,49.2549175],[16.5314451,49.2543831],[16.5315029,49.2539397],[16.5309169,49.2536525],[16.5311762,49.2531155],[16.5309891,49.2529798],[16.5313114,49.2525947],[16.5316706,49.2527479],[16.5319851,49.2522541],[16.5280373,49.2508406],[16.5288215,49.250525],[16.5297618,49.2489593],[16.530684,49.2485904],[16.531336,49.2476653],[16.5309568,49.2470963],[16.5311851,49.2467154],[16.5310621,49.2455481],[16.531445,49.2448713],[16.532671,49.2440657],[16.5333188,49.2442219],[16.5341144,49.2436527],[16.5339183,49.2433773],[16.5346343,49.2420989],[16.5324067,49.2411545],[16.5319005,49.2417262],[16.5301569,49.2410907],[16.5297414,49.2413701],[16.5258767,49.2411677],[16.5260732,49.2417455],[16.521244,49.2428481],[16.5170009,49.2433377],[16.5188044,49.2467107],[16.5178768,49.2464916],[16.5160377,49.2474089],[16.5159081,49.2479838],[16.5101106,49.2495249],[16.5104657,49.2499364],[16.5099159,49.2508862],[16.5064198,49.2536861],[16.5025968,49.2554938],[16.5018984,49.2568847],[16.5027143,49.2581365],[16.504619,49.2591874],[16.5050552,49.261104],[16.5055007,49.2609897],[16.5052507,49.2603436],[16.5055337,49.260044],[16.5073158,49.2608425],[16.5083163,49.2634822],[16.4952653,49.2717927],[16.4937466,49.2705644],[16.4883179,49.2725167],[16.4876995,49.2732331],[16.488067,49.2748272],[16.487769,49.275635],[16.4858251,49.2774081],[16.4831354,49.277552],[16.4787432,49.2786618],[16.4792413,49.2780715],[16.4760004,49.2775485],[16.4734832,49.2763573],[16.468781,49.2795289],[16.4652728,49.2811422],[16.4638917,49.282705],[16.4627164,49.2827019],[16.4623588,49.2823098],[16.4629735,49.2820163],[16.4624001,49.2813914],[16.4623846,49.2808662],[16.4621746,49.2806573],[16.4613136,49.2811033],[16.4613086,49.2805409],[16.4616284,49.2802556],[16.4614514,49.2800321],[16.4600839,49.2798402],[16.4603042,49.2794598],[16.459714,49.2791297],[16.4585704,49.2793746],[16.4579451,49.2779131],[16.4579828,49.2788474],[16.4571783,49.2788171],[16.4566,49.2784287],[16.4565591,49.2773222],[16.4549646,49.2770077],[16.4542064,49.2763692],[16.4547825,49.2760652],[16.4545751,49.2758423],[16.4551013,49.2753993],[16.4548284,49.2746278],[16.4507477,49.2722477],[16.4508453,49.2686017],[16.4516346,49.2675866],[16.4491856,49.2661896],[16.4470866,49.265566],[16.447388,49.2636824],[16.4470266,49.2623754],[16.4463312,49.2616417],[16.4485543,49.2606067],[16.4490433,49.2600663],[16.4490407,49.2591357],[16.4504362,49.2583471],[16.4507081,49.2567647],[16.4502248,49.2561933],[16.4503497,49.2557568],[16.4531138,49.254335],[16.4528657,49.2541914],[16.4546624,49.2537787],[16.4549533,49.253355],[16.454636,49.2528625],[16.4540253,49.252711],[16.4500481,49.2532899],[16.4493202,49.2529184],[16.4487046,49.251992],[16.4516567,49.2510702],[16.454073,49.2513225],[16.4542745,49.2511042],[16.4521406,49.2503209],[16.450351,49.2486403],[16.4486603,49.2477155],[16.4481479,49.2461334],[16.4472727,49.2448285],[16.4459969,49.2448133],[16.4454625,49.2426246],[16.4447772,49.2420777],[16.4453298,49.2416907],[16.4450716,49.2412353],[16.4451795,49.2404291],[16.444283,49.2400019],[16.4442003,49.2391899],[16.4399466,49.2352187],[16.4393141,49.235518],[16.4381469,49.2347631],[16.436646,49.2345858],[16.4353286,49.2358418],[16.432706,49.2346568],[16.4398366,49.23333],[16.4397194,49.2318959],[16.438412,49.2311752],[16.436224,49.231705],[16.4353031,49.2301491],[16.4358524,49.2288945],[16.4369208,49.2287175],[16.4373577,49.2283271],[16.4376928,49.2275495],[16.4373935,49.2268994],[16.4355089,49.2266102],[16.4325884,49.2241048],[16.4326976,49.2231143],[16.4318405,49.2233215],[16.4330155,49.2214879],[16.4305476,49.220191],[16.4279898,49.2166657]]]}}]}