{"type":"FeatureCollection","features":[{"type":"Feature","properties":{"name":"České Budějovice"},"geometry":{"type":"MultiPolygon","coordinates":[[[[14.3869152,48.9974432],[14.390642,48.9954787],[14.3928578,48.9961118],[14.3930742,48.9954664],[14.3950352,48.9950696],[14.3950698,48.9937527],[14.392811,48.9940199],[14.3933881,48.9933241],[14.3896428,48.9912901],[14.3905541,48.9908881],[14.3927014,48.9906921],[14.392601,48.9889573],[14.3951756,48.9891152],[14.3952365,48.9902071],[14.395906,48.9905807],[14.3995437,48.9904995],[14.4003314,48.990023],[14.3999966,48.9891246],[14.4003943,48.9884666],[14.4000891,48.9879004],[14.3993947,48.9877211],[14.4014067,48.9876649],[14.4026053,48.9870509],[14.4060835,48.9839621],[14.4076379,48.9830237],[14.4123255,48.983061],[14.4115073,48.9847782],[14.4169624,48.9845471],[14.4172408,48.9837752],[14.4228027,48.9850534],[14.4238335,48.9853375],[14.4280767,48.9883504],[14.4297917,48.9868696],[14.4299028,48.9856492],[14.4305074,48.984735],[14.4307934,48.9832696],[14.4280759,48.9813256],[14.4263371,48.9808566],[14.426891,48.9802416],[14.4269107,48.9787682],[14.427654,48.978745],[14.4277497,48.9773182],[14.4290577,48.973971],[14.4297066,48.9728417],[14.4323226,48.9708532],[14.4334741,48.9680738],[14.4361503,48.9678893],[14.436141,48.9664945],[14.4386956,48.966518],[14.4380866,48.9658596],[14.4389368,48.9652248],[14.4399213,48.9658342],[14.4417612,48.9663019],[14.4430996,48.9674289],[14.4444141,48.9673451],[14.4450426,48.9679684],[14.4508398,48.9681468],[14.4543902,48.9648583],[14.4555985,48.9650466],[14.4561978,48.9642128],[14.4586067,48.9644567],[14.4589874,48.9638367],[14.4581765,48.9631321],[14.4598472,48.9632559],[14.4623486,48.9628759],[14.4610366,48.961867],[14.4578911,48.9605782],[14.4570422,48.9597014],[14.456757,48.9588181],[14.4570854,48.9575868],[14.4574522,48.9575816],[14.4601883,48.9542436],[14.4612879,48.9538962],[14.4649751,48.953719],[14.4660078,48.9530191],[14.4636775,48.951025],[14.4629967,48.9498639],[14.4636343,48.9480496],[14.4636823,48.9436003],[14.4642939,48.9433195],[14.4637621,48.9422945],[14.4627258,48.9419159],[14.4617339,48.9408289],[14.4623624,48.9389952],[14.4621484,48.9371646],[14.4626047,48.9355497],[14.4618744,48.9344807],[14.4621412,48.9344313],[14.4611564,48.9334343],[14.4643919,48.9348032],[14.4652512,48.9356],[14.4685266,48.9414608],[14.473952,48.941265],[14.4741329,48.9407191],[14.476864,48.9415235],[14.4778925,48.9405717],[14.4792146,48.9428343],[14.4824247,48.9457527],[14.4864373,48.9470069],[14.4868471,48.9481524],[14.4877893,48.9485908],[14.4877151,48.9488487],[14.4869998,48.9487956],[14.4862699,48.9502584],[14.4854514,48.950824],[14.4866918,48.9513684],[14.4881942,48.9511852],[14.4910056,48.9499625],[14.4915407,48.9491197],[14.4937131,48.9491194],[14.4934309,48.9481278],[14.4927098,48.9481245],[14.4927455,48.9475782],[14.5011142,48.9476206],[14.5024647,48.9456425],[14.500237,48.949284],[14.500489,48.9492279],[14.5035099,48.94437],[14.5041824,48.9442436],[14.5066357,48.944551],[14.5068674,48.9465759],[14.5080116,48.9503228],[14.5166559,48.9493271],[14.5159753,48.9500931],[14.5160667,48.9507145],[14.5147956,48.9516793],[14.5141422,48.9531276],[14.5122019,48.9543165],[14.5111824,48.9556135],[14.5064867,48.9572564],[14.5076011,48.9620196],[14.5084811,48.9619166],[14.5091823,48.9635066],[14.5114351,48.9628618],[14.5170894,48.9598908],[14.5174624,48.95983],[14.5179726,48.9602689],[14.5161096,48.9609446],[14.5174281,48.9627319],[14.5179566,48.9639176],[14.517493,48.9641324],[14.5187253,48.9655849],[14.5193398,48.966937],[14.5203428,48.9734753],[14.5170234,48.9740854],[14.5151602,48.9739347],[14.5149317,48.9752481],[14.5139487,48.9750495],[14.5135244,48.9755073],[14.5145241,48.9759117],[14.5134154,48.9769792],[14.5157772,48.9781741],[14.5163896,48.9792081],[14.5164707,48.9798379],[14.515894,48.9800973],[14.5161972,48.9809625],[14.5159585,48.9809581],[14.5165532,48.9811184],[14.5158819,48.9828777],[14.5162934,48.9824766],[14.5193766,48.9828999],[14.5181411,48.9859409],[14.5192925,48.9861706],[14.5183099,48.9890997],[14.5203055,48.9897358],[14.5198832,48.9920841],[14.5190638,48.9923251],[14.5210288,48.9939049],[14.5212991,48.9952886],[14.5206135,48.9961657],[14.5196818,48.9960458],[14.5170428,48.9967733],[14.5112253,48.9973945],[14.5083497,48.9985491],[14.5028944,49.0029216],[14.5008477,49.0040889],[14.5010048,49.0051344],[14.500837,49.0059773],[14.5005101,49.0061273],[14.5005342,49.0064988],[14.5012364,49.0069865],[14.5013577,49.0082912],[14.5010827,49.0089667],[14.499988,49.0085951],[14.4989863,49.009177],[14.4960648,49.0092919],[14.4941443,49.0082692],[14.4937899,49.0090185],[14.4908773,49.0105292],[14.4922258,49.0125559],[14.4906676,49.0127109],[14.4892227,49.0121922],[14.4888782,49.0123039],[14.489112,49.01288],[14.4875178,49.0129216],[14.4865805,49.0125937],[14.4863946,49.0118762],[14.4823786,49.0134175],[14.4814868,49.0141088],[14.4792737,49.0078588],[14.4794103,49.0074141],[14.4772219,49.0078518],[14.4756774,49.0087092],[14.4736386,49.0092057],[14.4716734,49.010602],[14.4693175,49.0110552],[14.469262,49.0107836],[14.4678584,49.0102668],[14.4669018,49.0092349],[14.4666821,49.0085294],[14.4661676,49.0084991],[14.4661222,49.0090356],[14.4657919,49.0091748],[14.4644899,49.0087294],[14.4632476,49.0087339],[14.4603388,49.0101376],[14.4588388,49.0111474],[14.4580946,49.0121348],[14.4563058,49.0129118],[14.4546379,49.0147421],[14.4542454,49.0146507],[14.4520837,49.0172548],[14.4504671,49.0198566],[14.4413238,49.0183662],[14.4409641,49.0171402],[14.4399862,49.0160016],[14.4334967,49.014076],[14.4288368,49.0098252],[14.4220744,49.0078542],[14.3983944,49.0077428],[14.3922741,49.0088834],[14.391903,49.0067299],[14.3893873,49.0074064],[14.3879277,49.0021947],[14.3892014,49.0008252],[14.3890956,48.9996015],[14.3875902,48.9993906],[14.3869152,48.9974432]]],[[[14.5319362,48.965331],[14.5325069,48.9643746],[14.5343032,48.9636398],[14.533897,48.9631339],[14.5341741,48.9627434],[14.5350855,48.9625103],[14.5373395,48.961101],[14.5370913,48.9604883],[14.5377978,48.9596916],[14.5415842,48.9579907],[14.5432974,48.9577968],[14.5431964,48.9575957],[14.5451676,48.9561103],[14.5448419,48.9559088],[14.5467993,48.9546349],[14.549739,48.9539073],[14.5519548,48.953897],[14.5553002,48.9523194],[14.5557319,48.9524215],[14.5571145,48.9518824],[14.5585618,48.9504952],[14.5690267,48.9506765],[14.5708814,48.9504111],[14.5731479,48.9495166],[14.5770406,48.949176],[14.5805545,48.9498647],[14.5858625,48.9516277],[14.5912834,48.9543941],[14.5913056,48.955281],[14.5907496,48.9561182],[14.5909046,48.9571393],[14.5921334,48.9603105],[14.5951911,48.9655069],[14.5948683,48.9658844],[14.593723,48.9654695],[14.593483,48.9659529],[14.5913202,48.9669888],[14.5897459,48.9697159],[14.5883014,48.9707115],[14.5864803,48.9727765],[14.5864346,48.974003],[14.5857701,48.9745346],[14.5824747,48.9755031],[14.5817993,48.9749031],[14.5798981,48.9742932],[14.5718091,48.9735477],[14.5649937,48.9751156],[14.5647493,48.9747146],[14.5660852,48.9736238],[14.5662813,48.9724058],[14.5639307,48.970265],[14.5607474,48.9692135],[14.5549781,48.9680921],[14.5538465,48.9680228],[14.5519296,48.9684477],[14.5516603,48.9687837],[14.5497981,48.9685502],[14.5489655,48.9664723],[14.5479066,48.9648995],[14.5462548,48.9652917],[14.543641,48.9669708],[14.5409054,48.9672322],[14.5387191,48.9684703],[14.5380304,48.9704437],[14.5365693,48.9706184],[14.5349422,48.9701341],[14.5345637,48.9685433],[14.5351038,48.9680954],[14.5351031,48.9676131],[14.5330608,48.966753],[14.5325393,48.9653605],[14.5333372,48.9655707],[14.533779,48.9650654],[14.5329734,48.9649111],[14.5319362,48.965331]]]]}}]}