{"type": "FeatureCollection", "features": [{"type": "Feature", "properties": {"name": "hradec_kralove"}, "geometry": {"type": "Polygon", "coordinates": [[[15.7467677, 50.2257647], [15.7729155, 50.2156024], [15.7712297, 50.2015586], [15.7569952, 50.1991186], [15.7635187, 50.1872605], [15.7555611, 50.1832681], [15.7708778, 50.1727563], [15.7762137, 50.1756593], [15.7886825, 50.1685222], [15.8043219, 50.1680426], [15.8003181, 50.1628066], [15.8094405, 50.1599871], [15.8099947, 50.1776467], [15.8189707, 50.1743563], [15.8187162, 50.1639404], [15.828537, 50.1612552], [15.8306727, 50.1643112], [15.8462158, 50.1616549], [15.8455358, 50.1672692], [15.8502518, 50.1693318], [15.8560692, 50.1690048], [15.8567159, 50.161972], [15.8616553, 50.1605194], [15.9165876, 50.1636793], [15.9175099, 50.1724321], [15.9270748, 50.1820461], [15.9249607, 50.2048314], [15.9350339, 50.2044219], [15.9317755, 50.2101236], [15.9276556, 50.2076251], [15.9277735, 50.2122025], [15.9152151, 50.2163019], [15.9146842, 50.2237363], [15.9067618, 50.2236098], [15.9103677, 50.2300579], [15.9195766, 50.2327031], [15.9145417, 50.244407], [15.8979781, 50.2405982], [15.8742564, 50.2481319], [15.8674449, 50.2448309], [15.8628596, 50.2476426], [15.8706476, 50.2501576], [15.871989, 50.2567998], [15.8576083, 50.2655363], [15.8345227, 50.2659439], [15.8303359, 50.2602198], [15.8341519, 50.2534231], [15.8255387, 50.2513292], [15.8243456, 50.2469304], [15.7988242, 50.2533778], [15.7917025, 50.250828], [15.7890038, 50.2436475], [15.7785802, 50.2421828], [15.7803009, 50.2352494], [15.7734422, 50.2321942], [15.7530827, 50.2366117], [15.7467677, 50.2257647]]]}}]}