{"type": "FeatureCollection", "features": [{"type": "Feature", "properties": {"name": "liberec"}, "geometry": {"type": "Polygon", "coordinates": [[[14.9529697, 50.7796847], [14.9673927, 50.7703763], [14.9739064, 50.7561696], [14.9821796, 50.7510249], [14.9784815, 50.7423582], [14.9840224, 50.7325186], [14.9992647, 50.7264844], [15.0177139, 50.7100146], [15.0265726, 50.7093613], [15.0376113, 50.7144605], [15.0325493, 50.7207087], [15.0458573, 50.7252952], [15.067114, 50.7161061], [15.0629922, 50.7197493], [15.0734948, 50.7277624], [15.0767368, 50.7203665], [15.0936104, 50.7100269], [15.1070942, 50.7080141], [15.1092629, 50.7149744], [15.1224014, 50.7171025], [15.1267934, 50.7229951], [15.1038215, 50.7368337], [15.1208677, 50.7469058], [15.126711, 50.7448908], [15.1297372, 50.749472], [15.1244366, 50.7554876], [15.1351718, 50.7545247], [15.1322727, 50.7590307], [15.1356708, 50.7720764], [15.1431529, 50.7705791], [15.1468816, 50.7755087], [15.1276867, 50.7909715], [15.1165856, 50.7896423], [15.1129521, 50.7938042], [15.1217039, 50.8072752], [15.1051375, 50.8107054], [15.0709475, 50.8063449], [15.0371732, 50.8243417], [14.9973468, 50.8002358], [14.9875068, 50.8033862], [14.9718572, 50.7982583], [14.9728492, 50.7935166], [14.9604158, 50.7973316], [14.9593983, 50.7912736], [14.9709972, 50.7890176], [14.9529697, 50.7796847]], [[14.9998314, 50.7945244], [15.0049898, 50.8038449], [15.0416859, 50.7991313], [15.0455453, 50.7884993], [15.02565, 50.7855452], [15.0155231, 50.7747456], [15.0168432, 50.7901436], [15.000718, 50.7894171], [14.9998314, 50.7945244]]]}}]}