{"type": "FeatureCollection", "features": [{"type": "Feature", "properties": {"name": "Olomouc"}, "geometry": {"type": "MultiPolygon", "coordinates": [[[[17.1784261, 49.6260651], [17.1788295, 49.6258475], [17.1808589, 49.6289269], [17.1839832, 49.6332073], [17.184096, 49.6332269], [17.1842301, 49.6332103], [17.1843942, 49.6332123], [17.1850994, 49.6333228], [17.1853523, 49.6333344], [17.1860667, 49.633272], [17.1863794, 49.6332702], [17.1865563, 49.6333143], [17.1867226, 49.6334194], [17.187425, 49.6341844], [17.1874882, 49.6342201], [17.1874564, 49.6353746], [17.187403, 49.6356096], [17.1873, 49.6359645], [17.1873039, 49.6359717], [17.1872278, 49.6361025], [17.1870812, 49.6362891], [17.1869252, 49.6365156], [17.1867411, 49.6367461], [17.1865293, 49.6369989], [17.1863443, 49.637247], [17.1859578, 49.6377323], [17.1857281, 49.6380096], [17.1854353, 49.6383803], [17.1854226, 49.6384066], [17.1853958, 49.6385336], [17.1853953, 49.6385465], [17.1853859, 49.6387754], [17.1857622, 49.6388961], [17.1859353, 49.6389808], [17.1862948, 49.6391959], [17.1863754, 49.6392404], [17.1868819, 49.63952], [17.1875848, 49.6399157], [17.1875999, 49.6399256], [17.1878156, 49.6400673], [17.1879198, 49.6401763], [17.1879837, 49.6402709], [17.1880972, 49.6404458], [17.1883845, 49.6409625], [17.1885811, 49.6413062], [17.1886528, 49.6414223], [17.188965, 49.6414022], [17.1894727, 49.6413554], [17.1898159, 49.6413402], [17.1899157, 49.6413446], [17.1910082, 49.641236], [17.1911045, 49.6412111], [17.1907796, 49.6424252], [17.1907349, 49.6426039], [17.1924172, 49.643124], [17.193158, 49.6433962], [17.194, 49.6436343], [17.1951668, 49.6438012], [17.1970842, 49.6437392], [17.1972079, 49.6437469], [17.1972069, 49.6438215], [17.1972543, 49.6438237], [17.1970872, 49.6447607], [17.1970351, 49.6451575], [17.1969796, 49.6456994], [17.1969277, 49.6462325], [17.1968336, 49.646994], [17.1967404, 49.6474334], [17.1966496, 49.6476492], [17.1965517, 49.6478407], [17.1962208, 49.6484285], [17.1958744, 49.6490221], [17.1956032, 49.6494715], [17.1953197, 49.6500324], [17.1952096, 49.6502201], [17.1950436, 49.6505146], [17.194714, 49.6510481], [17.1944964, 49.6514054], [17.1942186, 49.6519661], [17.1940536, 49.6524198], [17.1939527, 49.6527898], [17.1938257, 49.6531772], [17.1935998, 49.6536417], [17.1934118, 49.6539508], [17.1930054, 49.6544968], [17.1926778, 49.6548798], [17.1925964, 49.6549783], [17.1922448, 49.6553536], [17.1919716, 49.6556028], [17.1917852, 49.6557795], [17.1917241, 49.6557983], [17.1916551, 49.6557874], [17.191204, 49.6557919], [17.1908211, 49.6558448], [17.190639, 49.6558833], [17.190287, 49.6559965], [17.1900407, 49.656085], [17.1897381, 49.6561749], [17.1894302, 49.6562441], [17.1892667, 49.6562639], [17.1885482, 49.6563221], [17.1881158, 49.6563499], [17.1878757, 49.6563548], [17.1877146, 49.6563415], [17.1873051, 49.6562621], [17.1869757, 49.6561638], [17.1867179, 49.6560557], [17.1864272, 49.6558884], [17.1862096, 49.6557315], [17.1860609, 49.6555922], [17.185853, 49.6553136], [17.185787, 49.6551841], [17.1857532, 49.6550703], [17.1857492, 49.6550435], [17.1857417, 49.6548983], [17.1857576, 49.6546519], [17.1857597, 49.6545641], [17.1857034, 49.6544203], [17.1855724, 49.6543465], [17.1850378, 49.6546711], [17.1842653, 49.6548578], [17.1829022, 49.6552164], [17.1827784, 49.6553743], [17.1828311, 49.6554632], [17.1828612, 49.655701], [17.1824611, 49.6588312], [17.1823874, 49.6596908], [17.1823151, 49.659878], [17.1828581, 49.6598221], [17.182935, 49.6598613], [17.1831364, 49.6597107], [17.1835067, 49.6594885], [17.1839921, 49.6591674], [17.1858562, 49.6583898], [17.1862163, 49.6583367], [17.1867115, 49.6598056], [17.1871979, 49.6605746], [17.187699, 49.6604379], [17.1878737, 49.6605921], [17.189389, 49.6622978], [17.1917767, 49.6635112], [17.1920112, 49.6636193], [17.191541, 49.6641756], [17.1914157, 49.6642383], [17.1911621, 49.6643204], [17.1904479, 49.6642059], [17.1902264, 49.6642592], [17.1902563, 49.6647129], [17.189553, 49.6651847], [17.1887699, 49.665149], [17.1886931, 49.6652706], [17.188359, 49.6652187], [17.1874395, 49.6654164], [17.1860496, 49.6656691], [17.1850974, 49.6653672], [17.1850023, 49.6654395], [17.1851685, 49.6655487], [17.1853758, 49.6659546], [17.1853682, 49.6662825], [17.1847346, 49.6667714], [17.184459, 49.6667683], [17.184082, 49.6665835], [17.1833654, 49.6664314], [17.1833567, 49.6665706], [17.1835047, 49.6671123], [17.183229, 49.6676106], [17.1829286, 49.6681333], [17.1826542, 49.6682468], [17.1823502, 49.6682857], [17.1819893, 49.667932], [17.1814862, 49.667516], [17.18129, 49.6676], [17.1815927, 49.6679929], [17.1817416, 49.6682999], [17.1812989, 49.6686946], [17.1811359, 49.66884], [17.1802628, 49.6692567], [17.1793952, 49.6700291], [17.1793874, 49.6701442], [17.1793555, 49.6702224], [17.1797104, 49.6703692], [17.1801617, 49.6710355], [17.1805019, 49.6712108], [17.1807294, 49.6708566], [17.1811311, 49.6707732], [17.1818588, 49.6708737], [17.1821788, 49.6710902], [17.1825199, 49.6711558], [17.1829822, 49.6710756], [17.1831802, 49.6709585], [17.1833331, 49.6707403], [17.1834364, 49.6704701], [17.1833839, 49.6701157], [17.1839802, 49.669673], [17.1848324, 49.6695824], [17.1857853, 49.669742], [17.1865932, 49.6698606], [17.1870779, 49.6696462], [17.1873073, 49.6693314], [17.1871395, 49.6689633], [17.186138, 49.6685619], [17.1859453, 49.6683051], [17.1865311, 49.668009], [17.1868713, 49.6681125], [17.1872778, 49.6685553], [17.1877014, 49.6686833], [17.1880104, 49.6687103], [17.1884448, 49.6686391], [17.1889642, 49.6683436], [17.1890111, 49.6680505], [17.1889571, 49.6673669], [17.1894167, 49.6668575], [17.19026, 49.6662806], [17.1902653, 49.666277], [17.1905834, 49.6661377], [17.190584, 49.6661374], [17.1910228, 49.6661169], [17.1910621, 49.6661151], [17.1913462, 49.6660918], [17.1921383, 49.6657147], [17.1923736, 49.6655173], [17.1925199, 49.6652272], [17.1924985, 49.665141], [17.1924464, 49.664931], [17.1920948, 49.6646323], [17.1921422, 49.6645217], [17.1923095, 49.6644982], [17.1936302, 49.6644536], [17.194387, 49.6645634], [17.1955312, 49.6646201], [17.1960314, 49.6645196], [17.1964052, 49.664447], [17.1966018, 49.6644432], [17.1970405, 49.6645302], [17.1978696, 49.6645504], [17.1982051, 49.6644333], [17.1983599, 49.6642246], [17.1980971, 49.6638227], [17.1977604, 49.6633299], [17.1977297, 49.6632321], [17.1976696, 49.6630407], [17.1974127, 49.6625593], [17.1984806, 49.6621087], [17.1988708, 49.6620112], [17.2000441, 49.6614627], [17.2003718, 49.6611992], [17.2007646, 49.6612555], [17.2011658, 49.6617236], [17.2015403, 49.6620779], [17.2018967, 49.662189], [17.2023201, 49.662239], [17.2034655, 49.6623307], [17.2039574, 49.6622694], [17.2043615, 49.6622218], [17.204698, 49.6626655], [17.2054669, 49.6620285], [17.2059313, 49.6620737], [17.206242, 49.6619284], [17.2065077, 49.6616534], [17.2069109, 49.6616201], [17.2074792, 49.6614405], [17.2085137, 49.6614115], [17.2081608, 49.6609298], [17.2087958, 49.6606366], [17.2089119, 49.6604921], [17.2086693, 49.6600727], [17.2088023, 49.6597148], [17.2089313, 49.6593911], [17.2096165, 49.658605], [17.2101334, 49.6584777], [17.2106783, 49.6593516], [17.2104907, 49.6596814], [17.2106166, 49.6602118], [17.2104377, 49.6605694], [17.2097026, 49.6610509], [17.2095589, 49.661417], [17.2097007, 49.661707], [17.2098646, 49.6618972], [17.2105932, 49.6622003], [17.2121751, 49.6620518], [17.2123996, 49.6619292], [17.2125023, 49.6618657], [17.21266, 49.6618269], [17.2127724, 49.6616839], [17.2128714, 49.6613412], [17.2127977, 49.6611872], [17.2130826, 49.6607653], [17.213449, 49.6603766], [17.2138857, 49.6599925], [17.2144722, 49.6585767], [17.2145156, 49.6577623], [17.2149285, 49.6573888], [17.2158879, 49.6574998], [17.2161572, 49.6577736], [17.2165075, 49.6579763], [17.2170255, 49.6581291], [17.2172967, 49.6581473], [17.2175858, 49.6580735], [17.2180027, 49.6578278], [17.2182121, 49.6575367], [17.2182173, 49.6572417], [17.2182984, 49.6570162], [17.2179165, 49.6566831], [17.2179515, 49.6563882], [17.2174478, 49.6557411], [17.2170154, 49.6551707], [17.2165509, 49.6546551], [17.2166889, 49.6543895], [17.2166887, 49.6541897], [17.2165457, 49.6540505], [17.216305, 49.6537232], [17.2158526, 49.6536543], [17.2154181, 49.6534214], [17.2155371, 49.6531727], [17.2155727, 49.6529914], [17.2157577, 49.6527459], [17.2159934, 49.652472], [17.2167105, 49.6519691], [17.2178852, 49.6514075], [17.2202361, 49.6505325], [17.2202712, 49.6505107], [17.2215242, 49.6498529], [17.2220943, 49.6494872], [17.2221582, 49.6494821], [17.2222189, 49.6494269], [17.222597, 49.6491585], [17.2226484, 49.6491196], [17.2226198, 49.649102], [17.2221944, 49.6489369], [17.2225005, 49.6486575], [17.2230265, 49.6482255], [17.2232617, 49.6479124], [17.2234416, 49.6478014], [17.2235505, 49.6476156], [17.2236678, 49.6473915], [17.2237765, 49.6470558], [17.2237581, 49.6465818], [17.2237504, 49.6462015], [17.22381, 49.6455362], [17.2238752, 49.6452675], [17.2239978, 49.6450296], [17.223971, 49.6449926], [17.2243561, 49.6444445], [17.2246543, 49.6441768], [17.2247841, 49.6441265], [17.2249716, 49.6439927], [17.2245215, 49.6437842], [17.2241679, 49.6440488], [17.224057, 49.643942], [17.2237714, 49.6436816], [17.2233277, 49.6433075], [17.2231725, 49.6434199], [17.2224198, 49.6429717], [17.2223123, 49.6428382], [17.222585, 49.6427623], [17.2226331, 49.6427131], [17.2227375, 49.6425611], [17.2229994, 49.6421165], [17.2230767, 49.642019], [17.223372, 49.6418689], [17.2234199, 49.641892], [17.2237022, 49.6417569], [17.2238618, 49.6416838], [17.2240256, 49.641582], [17.2241658, 49.6414205], [17.224231, 49.6413719], [17.2244503, 49.6412661], [17.2245915, 49.6411432], [17.2246937, 49.6409202], [17.2248193, 49.6407046], [17.2248383, 49.6406412], [17.224843, 49.6403847], [17.2247135, 49.6403038], [17.2245697, 49.6402481], [17.2247582, 49.6401344], [17.2249341, 49.6399362], [17.2251043, 49.6397024], [17.2256722, 49.6393017], [17.2263316, 49.6393701], [17.2269748, 49.6392868], [17.2271588, 49.6391334], [17.227237, 49.6390602], [17.2274062, 49.6390784], [17.2286185, 49.639247], [17.2290484, 49.6393005], [17.2291873, 49.6392115], [17.2296338, 49.639007], [17.2296472, 49.6390032], [17.2301575, 49.6387724], [17.2302571, 49.6387256], [17.2304534, 49.6386424], [17.2304856, 49.638611], [17.2305588, 49.6384592], [17.2306219, 49.6383284], [17.2313769, 49.6358122], [17.2313156, 49.6356407], [17.2299592, 49.6349442], [17.229091, 49.6346023], [17.229586, 49.6339901], [17.2294701, 49.6339126], [17.2287011, 49.6335031], [17.2286311, 49.633324], [17.228516, 49.6329852], [17.2286047, 49.6327947], [17.2294325, 49.6330204], [17.2297393, 49.6330549], [17.2305101, 49.6330838], [17.2309999, 49.6329901], [17.2315423, 49.6328046], [17.2320235, 49.6324921], [17.2321254, 49.6323765], [17.2324628, 49.6319354], [17.2329047, 49.6313971], [17.2333309, 49.6309561], [17.2335311, 49.6304988], [17.2335307, 49.630279], [17.2334002, 49.6302378], [17.2331599, 49.6302735], [17.2327931, 49.6302416], [17.2327319, 49.6301488], [17.232941, 49.6297602], [17.2332475, 49.6295066], [17.2334403, 49.6293224], [17.2334946, 49.629103], [17.2334229, 49.62901], [17.2330577, 49.6287921], [17.2330591, 49.6286733], [17.2331773, 49.628562], [17.2334938, 49.6285168], [17.233701, 49.6284426], [17.2336228, 49.6283317], [17.2334436, 49.6280154], [17.2334505, 49.6278294], [17.233635, 49.6276949], [17.2338602, 49.6276923], [17.2341409, 49.6278321], [17.2342027, 49.6280727], [17.234284, 49.628218], [17.2344964, 49.6282814], [17.2346283, 49.6281883], [17.2345502, 49.6280615], [17.2343969, 49.6279186], [17.234304, 49.6277653], [17.2341995, 49.6274059], [17.2340788, 49.6273303], [17.233714, 49.6274194], [17.2335097, 49.6274304], [17.2332193, 49.6273799], [17.2327306, 49.627379], [17.232472, 49.627372], [17.2322656, 49.6272948], [17.2320835, 49.627165], [17.2319447, 49.6269964], [17.2319332, 49.6267681], [17.2322773, 49.6264704], [17.2327569, 49.6262064], [17.2328394, 49.6261139], [17.2329223, 49.6258204], [17.2330707, 49.6256573], [17.2333846, 49.6253895], [17.2335147, 49.6250396], [17.2337077, 49.624876], [17.2339655, 49.6247925], [17.2341012, 49.6246578], [17.234045, 49.6245192], [17.2337515, 49.6245238], [17.2335062, 49.6246618], [17.233251, 49.624689], [17.2330856, 49.6246208], [17.2328177, 49.6245256], [17.2325903, 49.6244903], [17.2323276, 49.6245098], [17.2321182, 49.6244918], [17.2319831, 49.6244301], [17.2319588, 49.624331], [17.232071, 49.6241239], [17.2322993, 49.6240617], [17.2323954, 49.6239889], [17.2323813, 49.6239138], [17.2323181, 49.6236784], [17.2323765, 49.6235943], [17.2325346, 49.6234918], [17.2326891, 49.6234684], [17.2328564, 49.6234921], [17.2330822, 49.6235685], [17.2333076, 49.6237248], [17.23342, 49.6237329], [17.2335181, 49.6236188], [17.2338587, 49.6233339], [17.2341427, 49.6233356], [17.2344308, 49.6233659], [17.2345784, 49.6234838], [17.2345813, 49.6235082], [17.2345939, 49.623616], [17.2344505, 49.6237199], [17.2343741, 49.6238408], [17.2344092, 49.6239201], [17.2345664, 49.6239042], [17.2347177, 49.6237905], [17.2347175, 49.6235337], [17.2346681, 49.6233786], [17.234603, 49.623332], [17.2345769, 49.6233083], [17.2343679, 49.6231943], [17.2342483, 49.6230544], [17.2341086, 49.6229218], [17.2338969, 49.6230117], [17.2336493, 49.6230453], [17.2333861, 49.6229276], [17.2334247, 49.622763], [17.2336277, 49.62266], [17.2340555, 49.6225163], [17.2342669, 49.6224423], [17.234488, 49.6224389], [17.2347299, 49.6224791], [17.2348405, 49.6224014], [17.2346794, 49.622257], [17.2345735, 49.6221003], [17.2347595, 49.6218831], [17.2347439, 49.6217697], [17.2346033, 49.6216184], [17.2345186, 49.6213444], [17.2344338, 49.621251], [17.2341093, 49.6212427], [17.2340092, 49.6213651], [17.2339481, 49.6215421], [17.2338436, 49.621598], [17.2336545, 49.6216187], [17.2330576, 49.621418], [17.2327522, 49.6214058], [17.2325456, 49.6213496], [17.2324594, 49.6212538], [17.2320574, 49.6213593], [17.2319092, 49.6214759], [17.2317107, 49.621763], [17.2314005, 49.6217221], [17.2309579, 49.6216729], [17.2291197, 49.6214876], [17.2291084, 49.6215759], [17.2290843, 49.6216709], [17.2290436, 49.6218138], [17.2289978, 49.6218974], [17.2289485, 49.6219465], [17.2288725, 49.6219976], [17.2287903, 49.6220202], [17.228578, 49.6219961], [17.2283723, 49.6219899], [17.2281456, 49.6220859], [17.2275215, 49.6218876], [17.227458, 49.621884], [17.2271867, 49.6218684], [17.2264915, 49.6221046], [17.2262993, 49.6222172], [17.2260967, 49.622285], [17.2258543, 49.6223537], [17.2252654, 49.622474], [17.225162, 49.6225692], [17.2251301, 49.6226473], [17.2243542, 49.6228929], [17.2229994, 49.6231846], [17.2222713, 49.6233369], [17.2221292, 49.6233428], [17.2218716, 49.623498], [17.2218242, 49.623621], [17.2218137, 49.6238393], [17.2218519, 49.6239017], [17.2221703, 49.6242603], [17.2209884, 49.6243335], [17.220858, 49.6243431], [17.2180319, 49.6245173], [17.2167002, 49.6246647], [17.21656, 49.624745], [17.2164152, 49.6248668], [17.2164212, 49.6249417], [17.2164409, 49.6250353], [17.2164745, 49.6251507], [17.2164028, 49.6250632], [17.2163758, 49.6249247], [17.2163581, 49.6248501], [17.2162728, 49.6247829], [17.2161436, 49.6247177], [17.2157526, 49.6243503], [17.2154569, 49.6243941], [17.2148277, 49.624598], [17.2142548, 49.6248091], [17.213894, 49.6245313], [17.2132879, 49.6240556], [17.2128466, 49.623713], [17.212449, 49.6233895], [17.211862, 49.6229417], [17.2111319, 49.6223458], [17.2110532, 49.6223795], [17.2107279, 49.6225082], [17.2101227, 49.6227869], [17.2092863, 49.6231585], [17.208662, 49.623438], [17.2084026, 49.6234486], [17.2078225, 49.6229621], [17.2073388, 49.6225356], [17.2066553, 49.6219449], [17.2053634, 49.62254], [17.2043251, 49.6229999], [17.2031089, 49.6234484], [17.2031471, 49.6234959], [17.203352, 49.6237654], [17.202404, 49.6241259], [17.2011368, 49.6244788], [17.200097, 49.624737], [17.1990052, 49.6250027], [17.1974588, 49.6253433], [17.1967631, 49.6243735], [17.1964015, 49.6238738], [17.1959531, 49.6232293], [17.195915, 49.6230256], [17.1958631, 49.6229647], [17.1958944, 49.6229255], [17.1943807, 49.621686], [17.1940405, 49.621498], [17.1932739, 49.6212504], [17.1925131, 49.6210718], [17.191636, 49.6208868], [17.1911518, 49.6208259], [17.190787, 49.6208181], [17.1900908, 49.6208696], [17.1895926, 49.6209226], [17.1890037, 49.620934], [17.1882628, 49.620977], [17.1880976, 49.6210136], [17.1867322, 49.6216357], [17.1862698, 49.6218458], [17.1853221, 49.6223019], [17.1853037, 49.6223119], [17.1830924, 49.6235252], [17.1819408, 49.624142], [17.1805505, 49.6248716], [17.1783859, 49.6260178], [17.1784261, 49.6260651]]]]}}]}