{"type": "FeatureCollection", "features": [{"type": "Feature", "properties": {"name": "Ostrava"}, "geometry": {"type": "MultiPolygon", "coordinates": [[[[15.0779647, 50.6147522], [15.0782134, 50.6146452], [15.0785426, 50.6144629], [15.0789365, 50.6143698], [15.0795494, 50.6140701], [15.0803697, 50.6129784], [15.0803, 50.6127844], [15.080734, 50.6122237], [15.0811351, 50.6119163], [15.0812684, 50.6116378], [15.0817939, 50.6112507], [15.0823973, 50.6110405], [15.082772, 50.6105495], [15.0829206, 50.6103594], [15.0838757, 50.6096821], [15.0840031, 50.6095303], [15.0842761, 50.6091192], [15.0845009, 50.6088775], [15.0845506, 50.6086357], [15.0846537, 50.6083909], [15.0846841, 50.6082145], [15.0847176, 50.6080813], [15.0849457, 50.6078792], [15.0851733, 50.6074964], [15.0850965, 50.6074089], [15.0850908, 50.6072664], [15.0851735, 50.6071449], [15.0853726, 50.6072103], [15.0858207, 50.6072352], [15.0860577, 50.6073218], [15.0857606, 50.6088879], [15.085635, 50.6094567], [15.0855357, 50.6097429], [15.0846766, 50.6096791], [15.0844819, 50.6098729], [15.0841308, 50.6102946], [15.0836736, 50.6107991], [15.0835514, 50.6108979], [15.0842614, 50.6110857], [15.0853275, 50.6113277], [15.0864691, 50.6115002], [15.0866616, 50.611539], [15.0873221, 50.61171], [15.0878683, 50.6119063], [15.0881392, 50.6117566], [15.0883786, 50.6116037], [15.0885339, 50.6114345], [15.0888644, 50.6112381], [15.0891042, 50.6111099], [15.0893908, 50.6106925], [15.0901188, 50.6101767], [15.0905631, 50.6099132], [15.0906517, 50.6097516], [15.0910156, 50.6095844], [15.0909222, 50.6094475], [15.0909839, 50.6090699], [15.0911801, 50.6087541], [15.0912246, 50.6083298], [15.0911318, 50.6080233], [15.0911605, 50.6072299], [15.0912168, 50.6070443], [15.091088, 50.6065443], [15.0909825, 50.6062326], [15.0907056, 50.6058168], [15.0905899, 50.6051593], [15.0905174, 50.6045263], [15.090423, 50.6044541], [15.0899091, 50.6043127], [15.089468, 50.6040575], [15.0892718, 50.6040822], [15.0890098, 50.603935], [15.0889184, 50.6036893], [15.0890033, 50.6033086], [15.0890621, 50.60319], [15.0892682, 50.6029827], [15.0896475, 50.6026885], [15.0898634, 50.6024914], [15.0901265, 50.6021816], [15.0901526, 50.6019639], [15.0902952, 50.6019093], [15.0908421, 50.6010535], [15.0910655, 50.6007962], [15.0913796, 50.6006059], [15.0914894, 50.6004943], [15.0915411, 50.6002104], [15.0914329, 50.6000249], [15.0915123, 50.5998134], [15.0918399, 50.5995404], [15.0916313, 50.5992383], [15.0916856, 50.5988407], [15.0918658, 50.5986055], [15.0919213, 50.5982012], [15.091978, 50.5981519], [15.0918737, 50.5980951], [15.0916856, 50.5979756], [15.0914987, 50.5978984], [15.0911619, 50.5977992], [15.091278, 50.597507], [15.091355, 50.5972439], [15.0911387, 50.5972483], [15.0908551, 50.5973112], [15.0906355, 50.59739], [15.0904393, 50.5974399], [15.0903558, 50.5974464], [15.0901378, 50.5974014], [15.0898589, 50.5973116], [15.089909, 50.5971726], [15.0899659, 50.597057], [15.0899696, 50.5969304], [15.0900511, 50.5967036], [15.0900921, 50.5964292], [15.0904193, 50.5960514], [15.0906306, 50.5956884], [15.0907503, 50.5955006], [15.0908185, 50.5953198], [15.0909511, 50.5949444], [15.0910169, 50.5947157], [15.0911283, 50.5941321], [15.0911896, 50.5941138], [15.0914118, 50.5939416], [15.091489, 50.5938772], [15.0915462, 50.593681], [15.0915574, 50.5935149], [15.0915385, 50.593174], [15.0915057, 50.5929074], [15.0914481, 50.5929188], [15.0904027, 50.5929513], [15.0898369, 50.5929524], [15.0896362, 50.5929573], [15.0892691, 50.5929349], [15.0889123, 50.5928974], [15.0889622, 50.5927461], [15.0891312, 50.5920005], [15.0892579, 50.591791], [15.0894828, 50.5913835], [15.0896209, 50.5912019], [15.0898178, 50.5909914], [15.090229, 50.5906148], [15.090387, 50.5904638], [15.0909556, 50.5896567], [15.0911064, 50.5894468], [15.091252, 50.5892702], [15.0921816, 50.5895721], [15.0928712, 50.5897342], [15.0931154, 50.5891091], [15.0930341, 50.589073], [15.0936828, 50.5885552], [15.0939877, 50.5882484], [15.0943136, 50.5878207], [15.0944475, 50.5876099], [15.0946702, 50.5872138], [15.094669, 50.5870458], [15.0947589, 50.5869755], [15.0943018, 50.5863571], [15.0944543, 50.5862583], [15.0959984, 50.5863969], [15.0975213, 50.5864756], [15.0983599, 50.5865542], [15.0987668, 50.5865681], [15.1002672, 50.586567], [15.1003163, 50.5868587], [15.1003473, 50.5868844], [15.1003948, 50.5869051], [15.1024557, 50.5867815], [15.1028781, 50.5867645], [15.1037799, 50.5867163], [15.1038794, 50.587221], [15.103949, 50.5879237], [15.1048893, 50.5878958], [15.1054177, 50.587983], [15.1057152, 50.5880362], [15.1060053, 50.5881938], [15.1061819, 50.5886897], [15.106438, 50.5893162], [15.1060685, 50.5897696], [15.1063682, 50.5899424], [15.1064742, 50.5900072], [15.1065735, 50.5900576], [15.1071222, 50.5902929], [15.1077309, 50.5904892], [15.1086312, 50.5908422], [15.1087391, 50.5906761], [15.1092313, 50.5908807], [15.109592, 50.5910546], [15.109347, 50.5913619], [15.1092144, 50.5915507], [15.10879, 50.5922263], [15.1085958, 50.5921626], [15.1079232, 50.5920358], [15.1071203, 50.5921891], [15.1070878, 50.5921974], [15.1067854, 50.5922304], [15.1071726, 50.5924404], [15.1073294, 50.5925046], [15.1075119, 50.592538], [15.1075368, 50.5926372], [15.1075606, 50.5926709], [15.1077639, 50.5927205], [15.1075007, 50.5931852], [15.1073775, 50.5933224], [15.1090435, 50.5938765], [15.1095253, 50.5940142], [15.1101342, 50.5941764], [15.1099435, 50.5945676], [15.1097031, 50.5948824], [15.1081517, 50.5943957], [15.1069222, 50.5940147], [15.106667, 50.5942135], [15.107357, 50.5944212], [15.107293, 50.5944999], [15.1069608, 50.5948673], [15.106568, 50.5952523], [15.1066455, 50.5952917], [15.1060181, 50.5959387], [15.105764, 50.5961999], [15.1054474, 50.5965258], [15.1052339, 50.5964012], [15.1049338, 50.59673], [15.1044076, 50.5973591], [15.1042319, 50.5972941], [15.1040244, 50.5976037], [15.103887, 50.5979263], [15.1035812, 50.5986683], [15.1035038, 50.5988608], [15.1033752, 50.5991823], [15.1035916, 50.5992236], [15.1046212, 50.5994111], [15.1050573, 50.5995042], [15.1051533, 50.5999833], [15.1051531, 50.6000378], [15.1051324, 50.6001442], [15.1050954, 50.6002557], [15.1050636, 50.600311], [15.1047537, 50.6007997], [15.1045647, 50.6011425], [15.1043547, 50.6014753], [15.1046012, 50.6015217], [15.1048921, 50.6015949], [15.1055149, 50.6017378], [15.1053362, 50.6020049], [15.1051446, 50.6022937], [15.1055485, 50.6024134], [15.1060439, 50.6025936], [15.1056882, 50.6033373], [15.1057007, 50.6035572], [15.1057783, 50.6037347], [15.1058705, 50.6044461], [15.1059039, 50.6046815], [15.1058855, 50.6047968], [15.1058216, 50.6048942], [15.1057303, 50.6050625], [15.1056371, 50.6053434], [15.1055571, 50.6058781], [15.1055069, 50.6063681], [15.1054889, 50.6065597], [15.1054677, 50.6068118], [15.1053443, 50.6071928], [15.1051041, 50.607625], [15.1047568, 50.608053], [15.1045122, 50.6083734], [15.1039518, 50.6092976], [15.1040195, 50.6093302], [15.1041331, 50.6093718], [15.1043608, 50.6095148], [15.1045178, 50.6096251], [15.104636, 50.6097254], [15.1047159, 50.6098293], [15.1047474, 50.6099125], [15.1047528, 50.610003], [15.104749, 50.6101079], [15.1046202, 50.6102776], [15.1049379, 50.6103805], [15.1050356, 50.610433], [15.1051436, 50.6104984], [15.1048587, 50.6107174], [15.1043857, 50.6110954], [15.1037571, 50.6115986], [15.1037131, 50.6116366], [15.1035149, 50.6118597], [15.1033568, 50.6120417], [15.1030398, 50.6124462], [15.1028996, 50.612668], [15.1027159, 50.6129475], [15.1025646, 50.6131039], [15.1021583, 50.6134004], [15.1017634, 50.6136927], [15.1017097, 50.6137959], [15.1017831, 50.614151], [15.1018612, 50.6144043], [15.1018607, 50.6146018], [15.1018437, 50.6148586], [15.1018215, 50.6150711], [15.1017912, 50.615236], [15.1022199, 50.6154158], [15.1023561, 50.6154895], [15.102614, 50.615689], [15.1029372, 50.6159691], [15.1031733, 50.6161843], [15.1032596, 50.6162706], [15.1037013, 50.6161327], [15.1041126, 50.6160308], [15.1054138, 50.6157159], [15.1057884, 50.6156549], [15.105997, 50.6156358], [15.1059847, 50.6159442], [15.1060002, 50.6162151], [15.1061322, 50.6165285], [15.1063835, 50.6170308], [15.1066893, 50.6176175], [15.106706, 50.6176905], [15.1065821, 50.6180843], [15.1056321, 50.6181072], [15.1045782, 50.6181666], [15.1038381, 50.6182036], [15.1039005, 50.618276], [15.1039465, 50.6184088], [15.1039943, 50.6186027], [15.1041056, 50.6189945], [15.1040903, 50.6190204], [15.1040633, 50.6190395], [15.1040232, 50.6190485], [15.1036923, 50.619094], [15.1034624, 50.6191198], [15.103477, 50.6192217], [15.1034273, 50.6192153], [15.1034455, 50.6194525], [15.1035343, 50.6195682], [15.1037001, 50.6198692], [15.1037046, 50.6201134], [15.1037707, 50.6202208], [15.103889, 50.6203315], [15.1039836, 50.6204972], [15.1040962, 50.6206198], [15.1042875, 50.6210454], [15.1035483, 50.6210048], [15.1035409, 50.6210409], [15.1031237, 50.6210044], [15.1025807, 50.6209874], [15.1022228, 50.6210403], [15.1021006, 50.6210355], [15.1019992, 50.6213396], [15.1019445, 50.6214768], [15.1018383, 50.6214729], [15.1017065, 50.621461], [15.1015028, 50.6214259], [15.1015689, 50.6215823], [15.1015851, 50.6217588], [15.1015634, 50.6219737], [15.1015401, 50.6220948], [15.1011304, 50.6222071], [15.1010656, 50.6222279], [15.1005163, 50.6223703], [15.1003685, 50.6224124], [15.1001317, 50.6224932], [15.1000882, 50.6224367], [15.0997985, 50.6225359], [15.0998431, 50.6225909], [15.0991096, 50.6228401], [15.0989715, 50.62298], [15.0991243, 50.6231526], [15.0992946, 50.6232752], [15.0990606, 50.6232982], [15.0989125, 50.623331], [15.0987566, 50.6234032], [15.0985435, 50.6237365], [15.0984151, 50.6238268], [15.098228, 50.6235818], [15.0978754, 50.6232769], [15.0977206, 50.6231839], [15.0976395, 50.6231887], [15.0974813, 50.623155], [15.0971978, 50.6231522], [15.096999, 50.6231707], [15.0965454, 50.6233526], [15.096163, 50.6235101], [15.0951779, 50.6239213], [15.095282, 50.6250623], [15.0947134, 50.6252454], [15.0941843, 50.6252647], [15.0941523, 50.6252583], [15.0934806, 50.625171], [15.0933193, 50.6251384], [15.0932642, 50.6250988], [15.0931927, 50.6250677], [15.0922236, 50.6245157], [15.0918182, 50.6242959], [15.0917636, 50.6242774], [15.0910529, 50.6242268], [15.0904755, 50.6241877], [15.0901213, 50.6241875], [15.0900448, 50.6242054], [15.0899797, 50.6242371], [15.0893164, 50.6246721], [15.0888938, 50.6248864], [15.0885513, 50.6250062], [15.0883645, 50.6250627], [15.0881066, 50.6251785], [15.0880343, 50.6252079], [15.0879647, 50.6252443], [15.0867536, 50.6251002], [15.0869066, 50.6247246], [15.0872755, 50.6238992], [15.0874588, 50.6233476], [15.0878507, 50.6224167], [15.0878222, 50.6224127], [15.0878237, 50.622404], [15.0879678, 50.6220459], [15.0879515, 50.6218021], [15.0879352, 50.6214787], [15.0879428, 50.6210433], [15.0879968, 50.6207644], [15.0880938, 50.6205746], [15.0882926, 50.6202167], [15.0884997, 50.619913], [15.0887437, 50.61993], [15.0888358, 50.6198417], [15.0886147, 50.619757], [15.0880752, 50.6195715], [15.0870165, 50.6192278], [15.0864771, 50.6190492], [15.0859015, 50.6187371], [15.0856376, 50.6189728], [15.0852298, 50.6188318], [15.0849418, 50.6190244], [15.0846964, 50.6194475], [15.0845039, 50.619749], [15.083976, 50.6205502], [15.0836712, 50.6204176], [15.0836296, 50.6204034], [15.0826481, 50.6200343], [15.0829494, 50.6195614], [15.0827962, 50.6194406], [15.0823502, 50.6190709], [15.0815344, 50.6186061], [15.0810126, 50.6184022], [15.0805486, 50.6176126], [15.0803173, 50.6173595], [15.0802606, 50.6173132], [15.0805659, 50.6166797], [15.0805181, 50.6166693], [15.0801105, 50.6165694], [15.0796736, 50.6165102], [15.0789947, 50.6164781], [15.078882, 50.6160787], [15.078169, 50.6155014], [15.0780161, 50.6151554], [15.0779647, 50.6147522]]]]}}]}