{"type": "FeatureCollection", "features": [{"type": "Feature", "properties": {"name": "Plze\u0148"}, "geometry": {"type": "MultiPolygon", "coordinates": [[[[16.977956, 49.8332533], [16.9781841, 49.8325713], [16.9781985, 49.8324124], [16.9782127, 49.832158], [16.9784212, 49.8312104], [16.9785273, 49.8309659], [16.9785714, 49.8309203], [16.9786534, 49.8306895], [16.9786671, 49.8306164], [16.9786683, 49.8304182], [16.9786394, 49.8300509], [16.9786101, 49.8297727], [16.9786613, 49.8292044], [16.9787778, 49.8288112], [16.9787872, 49.8287171], [16.9789077, 49.8282843], [16.9790858, 49.8279252], [16.9792401, 49.8276506], [16.9794122, 49.8273289], [16.9793277, 49.8269842], [16.979844, 49.8260903], [16.980012, 49.8255976], [16.9801031, 49.8250549], [16.9803906, 49.8245151], [16.9805108, 49.8243012], [16.9806668, 49.8238106], [16.9806597, 49.823733], [16.9806516, 49.8235389], [16.9806148, 49.8233453], [16.9806206, 49.8231575], [16.9804131, 49.8228811], [16.98025, 49.822566], [16.9801815, 49.8223773], [16.980105, 49.8222007], [16.980249, 49.8215409], [16.9802659, 49.821354], [16.9802628, 49.821007], [16.9802521, 49.8207247], [16.980237, 49.8206145], [16.9802267, 49.8204387], [16.9798408, 49.8192446], [16.9795926, 49.8184473], [16.9796352, 49.8181128], [16.9795522, 49.8178051], [16.9793697, 49.816957], [16.9791353, 49.8166013], [16.9790146, 49.8158591], [16.9789192, 49.8157492], [16.9787393, 49.815462], [16.9787521, 49.8152975], [16.9787555, 49.815158], [16.9788739, 49.8148769], [16.978941, 49.8144224], [16.9790521, 49.8140535], [16.9790132, 49.8139274], [16.9790671, 49.8136429], [16.9788699, 49.8133061], [16.9786865, 49.8131369], [16.9786846, 49.8129202], [16.9786459, 49.8126799], [16.9785356, 49.8123546], [16.9784505, 49.8116703], [16.9783302, 49.8113703], [16.9783177, 49.8110702], [16.9782412, 49.8107703], [16.9782791, 49.8104252], [16.9781353, 49.8100814], [16.9781763, 49.809704], [16.9781439, 49.8093023], [16.9781089, 49.8090023], [16.978108, 49.80895], [16.9782155, 49.808499], [16.9783293, 49.8079067], [16.9784434, 49.8075063], [16.9785667, 49.8072402], [16.9786476, 49.8070165], [16.978661, 49.8065576], [16.9786658, 49.8065192], [16.9787979, 49.8062014], [16.9788074, 49.8060605], [16.978939, 49.8057026], [16.9792352, 49.8054167], [16.9795045, 49.8051468], [16.9800899, 49.804721], [16.9805758, 49.8043922], [16.9808465, 49.8041949], [16.9810839, 49.8038821], [16.9812282, 49.8035479], [16.9807999, 49.8023478], [16.9814783, 49.8023702], [16.9820159, 49.8023609], [16.982684, 49.8022774], [16.9826361, 49.8016675], [16.9839828, 49.801523], [16.9841041, 49.8016952], [16.9845179, 49.8020046], [16.9851085, 49.8025195], [16.9851821, 49.8027245], [16.985631, 49.8032517], [16.985877, 49.8034096], [16.9865099, 49.8036321], [16.9866006, 49.8036182], [16.9870375, 49.8035284], [16.9871016, 49.8033867], [16.9871997, 49.8030377], [16.9872878, 49.8027381], [16.9874481, 49.8025363], [16.98786, 49.8023781], [16.9880252, 49.8022957], [16.9880716, 49.8022297], [16.9880798, 49.802214], [16.9880001, 49.8022257], [16.9880037, 49.8022139], [16.988095, 49.8022017], [16.9881774, 49.8021823], [16.988306, 49.8022011], [16.9883686, 49.8021922], [16.9884695, 49.8022003], [16.9885422, 49.8021498], [16.9886122, 49.8021372], [16.9886708, 49.8020326], [16.9889349, 49.8021118], [16.9891302, 49.8020833], [16.9891924, 49.8021279], [16.989349, 49.8021317], [16.9893778, 49.8021546], [16.9893431, 49.8022372], [16.9892226, 49.8022987], [16.9892237, 49.8023237], [16.9892978, 49.8023396], [16.9893166, 49.8024248], [16.989265, 49.8024955], [16.9892732, 49.8025303], [16.989315, 49.8025529], [16.9893169, 49.8026012], [16.9893959, 49.8026436], [16.9893935, 49.8027016], [16.9894448, 49.8027716], [16.9894352, 49.8028073], [16.9894742, 49.8028614], [16.9894667, 49.8029123], [16.9897229, 49.8029934], [16.989822, 49.8030768], [16.9897443, 49.8031904], [16.9896557, 49.8033018], [16.989927, 49.8033342], [16.9901099, 49.8032372], [16.9902439, 49.8032193], [16.9903431, 49.803152], [16.9905472, 49.8031336], [16.9906905, 49.8031642], [16.9907721, 49.8032148], [16.9910226, 49.8032299], [16.9911889, 49.8032799], [16.9913075, 49.8032308], [16.9914481, 49.8032133], [16.9917985, 49.8031841], [16.9919657, 49.8032988], [16.9921477, 49.8033473], [16.9923378, 49.8034978], [16.9922064, 49.803624], [16.9921932, 49.8036886], [16.9923021, 49.8037399], [16.992323, 49.8037323], [16.9932471, 49.8033389], [16.9935933, 49.8036366], [16.9940061, 49.8037271], [16.9944037, 49.8038952], [16.9947722, 49.804114], [16.994936, 49.8042524], [16.9950258, 49.8045369], [16.9951165, 49.8046103], [16.9951258, 49.8046452], [16.9951163, 49.8048746], [16.9951085, 49.8050613], [16.9950897, 49.8052545], [16.9950766, 49.8055147], [16.9950562, 49.8057931], [16.995099, 49.8060827], [16.9951219, 49.8062137], [16.9955236, 49.8062301], [16.9958256, 49.8062689], [16.9966145, 49.8063321], [16.9967905, 49.8064038], [16.9973909, 49.8064626], [16.997754, 49.8065716], [16.997863, 49.8067679], [16.9979531, 49.8068548], [16.9980644, 49.8069445], [16.9982376, 49.8070193], [16.9984106, 49.8071984], [16.99863, 49.8073369], [16.9986859, 49.8073848], [16.9989494, 49.8077101], [16.9994427, 49.8078708], [16.9995999, 49.808018], [16.9996449, 49.808017], [16.9999279, 49.8080735], [17.0005618, 49.8082001], [17.0007423, 49.8085683], [17.0007987, 49.8089636], [17.0008419, 49.8092882], [17.0008575, 49.809587], [17.0007047, 49.8098662], [17.0006172, 49.8101739], [17.0008069, 49.8104593], [17.0006406, 49.8108956], [17.0006055, 49.8110808], [17.0007212, 49.8113068], [17.0005267, 49.8115799], [17.0004842, 49.8117367], [17.0005029, 49.8118298], [17.0007069, 49.8120441], [17.0007967, 49.8122001], [17.0007858, 49.8123505], [17.0007417, 49.8124891], [17.0006406, 49.8126616], [17.0004965, 49.8128638], [17.00043, 49.8130301], [17.0004818, 49.8131579], [17.0010328, 49.8135993], [17.0011656, 49.8137717], [17.0011721, 49.8138053], [17.001111, 49.8139955], [17.0010579, 49.8142738], [17.0010118, 49.81462], [17.0015347, 49.814544], [17.001919, 49.8144971], [17.0018649, 49.8145447], [17.0019048, 49.814618], [17.0020927, 49.8148937], [17.0022299, 49.8150784], [17.0023286, 49.815217], [17.0024432, 49.8154425], [17.0020972, 49.8155409], [17.0017748, 49.815626], [17.0014465, 49.8157113], [17.0014356, 49.8157556], [17.0015945, 49.815971], [17.001815, 49.8162113], [17.0019897, 49.8164534], [17.0021029, 49.816658], [17.0021819, 49.8168616], [17.0018196, 49.8169966], [17.0011617, 49.8172184], [17.0006084, 49.8174013], [17.000607, 49.817499], [17.000426, 49.8177281], [17.0002904, 49.8179154], [17.0001162, 49.818042], [17.000098, 49.8182233], [17.0004555, 49.8182059], [17.0008292, 49.818296], [17.0012258, 49.8184207], [17.0013415, 49.8184987], [17.0016221, 49.8186282], [17.0018237, 49.818789], [17.0019266, 49.8188908], [17.0020267, 49.8189622], [17.002257, 49.819163], [17.0025251, 49.8194432], [17.0027587, 49.8193923], [17.0029977, 49.8193316], [17.0033485, 49.8192367], [17.0038008, 49.8191109], [17.0041107, 49.819034], [17.004544, 49.8188827], [17.0047835, 49.8187732], [17.0048821, 49.8189998], [17.0046865, 49.8193939], [17.0046271, 49.8196508], [17.0046322, 49.8197733], [17.0049105, 49.8200893], [17.0050344, 49.8202817], [17.0054531, 49.8201769], [17.00587, 49.8201274], [17.0055936, 49.8202222], [17.0050884, 49.8204248], [17.0038643, 49.8207476], [17.0038499, 49.8212032], [17.003886, 49.821493], [17.0043107, 49.8214715], [17.0043099, 49.8215373], [17.0042835, 49.8215698], [17.0042741, 49.8215876], [17.0042248, 49.821601], [17.0039039, 49.8216217], [17.0038384, 49.8216666], [17.0037688, 49.8217774], [17.0037163, 49.8219241], [17.0036913, 49.8219929], [17.003662, 49.8220889], [17.0036352, 49.8221939], [17.0035758, 49.8224086], [17.0035667, 49.822526], [17.0035771, 49.8227105], [17.0035514, 49.8231035], [17.0035323, 49.8231814], [17.0035443, 49.8232431], [17.0033708, 49.8238788], [17.0033507, 49.8239495], [17.0033277, 49.8241931], [17.0032832, 49.8244304], [17.0033316, 49.8245706], [17.0033975, 49.8248462], [17.0034289, 49.8251684], [17.0034733, 49.8254264], [17.0036554, 49.8257675], [17.0037621, 49.8260056], [17.0037478, 49.8261841], [17.0036318, 49.8264471], [17.0036028, 49.8267152], [17.0028934, 49.826694], [17.0028471, 49.826788], [17.0027839, 49.8269532], [17.0027008, 49.8271729], [17.00259, 49.8275546], [17.0025894, 49.8277354], [17.0026243, 49.8279295], [17.0024362, 49.8279213], [17.0022549, 49.8280484], [17.0020302, 49.8280526], [17.0016089, 49.8280489], [17.0013257, 49.8280949], [17.0009276, 49.8281852], [17.0000657, 49.8283113], [16.9987171, 49.8285944], [16.9975515, 49.8288613], [16.9962946, 49.8291063], [16.9950127, 49.8293768], [16.9937421, 49.8297391], [16.9923564, 49.8302083], [16.9922024, 49.8302732], [16.991409, 49.8304747], [16.9905813, 49.8307918], [16.9896209, 49.8311536], [16.9891616, 49.8313668], [16.9883201, 49.8317168], [16.9879892, 49.8318684], [16.9875006, 49.8321145], [16.9871264, 49.8323644], [16.9866492, 49.8327118], [16.9863847, 49.8329322], [16.985701, 49.8334623], [16.9853325, 49.8337439], [16.9845901, 49.8342521], [16.9836654, 49.8348053], [16.9834118, 49.8349068], [16.9828805, 49.8352141], [16.9825801, 49.8353702], [16.9823814, 49.8354648], [16.9821646, 49.8355991], [16.9818919, 49.8358295], [16.981741, 49.8359723], [16.98149, 49.8361614], [16.9810837, 49.8363825], [16.980757, 49.8364568], [16.9805126, 49.8364694], [16.9802882, 49.8364746], [16.9800315, 49.8364845], [16.9796557, 49.8366027], [16.9788972, 49.8369285], [16.9785101, 49.8370665], [16.9783456, 49.8372979], [16.9783979, 49.8375914], [16.9783817, 49.8379395], [16.9778235, 49.8382705], [16.9774135, 49.8384938], [16.9773172, 49.8385877], [16.9769122, 49.8390527], [16.9769858, 49.8393247], [16.9771026, 49.8394964], [16.9772423, 49.8396263], [16.9772948, 49.8397301], [16.9774995, 49.8400644], [16.9775239, 49.840118], [16.9776189, 49.840388], [16.977652, 49.8404746], [16.9777586, 49.8406403], [16.9778058, 49.8408446], [16.9779905, 49.8410808], [16.9781948, 49.841174], [16.9784138, 49.8412844], [16.9790198, 49.8415182], [16.9793145, 49.8416024], [16.9794513, 49.8417233], [16.9797064, 49.841809], [16.9799007, 49.8418413], [16.9804533, 49.8420158], [16.9808995, 49.8420209], [16.9812613, 49.8419477], [16.9815162, 49.8419425], [16.9818544, 49.8420434], [16.9823829, 49.842381], [16.9828392, 49.8425773], [16.9830746, 49.842713], [16.9832321, 49.8428389], [16.9832845, 49.8429662], [16.9837327, 49.8429612], [16.9841781, 49.8428236], [16.9844616, 49.8428504], [16.9844893, 49.8432794], [16.9844145, 49.8434222], [16.9844385, 49.8437392], [16.9843315, 49.8438261], [16.9842502, 49.8438315], [16.9836049, 49.8438906], [16.9830634, 49.8439655], [16.9828302, 49.8439937], [16.9825582, 49.8440384], [16.9817528, 49.84437], [16.9808673, 49.8446384], [16.9806464, 49.8446948], [16.980745, 49.8450364], [16.9800198, 49.8451543], [16.979783, 49.8452248], [16.9796085, 49.8452671], [16.9795621, 49.8454595], [16.9796967, 49.8457668], [16.978985, 49.8459109], [16.9787476, 49.8459287], [16.9786047, 49.8460315], [16.9780603, 49.84619], [16.9778249, 49.8462943], [16.9779178, 49.8464865], [16.9781794, 49.8466232], [16.9783998, 49.8468105], [16.978536, 49.8469097], [16.9786684, 49.8471011], [16.9787756, 49.847283], [16.9788703, 49.8475139], [16.978976, 49.8478767], [16.975728, 49.8460766], [16.9753069, 49.8458029], [16.9729781, 49.8445236], [16.9724112, 49.8442042], [16.9724178, 49.8438947], [16.9723559, 49.8433996], [16.9723787, 49.8432008], [16.9722595, 49.8426895], [16.9722687, 49.8425818], [16.9723183, 49.8423342], [16.9723111, 49.8417211], [16.9722238, 49.8413277], [16.9721539, 49.8410956], [16.9721328, 49.8408599], [16.9718831, 49.8402265], [16.9717923, 49.840038], [16.9716429, 49.8397368], [16.9717038, 49.8391084], [16.9719106, 49.8388527], [16.9720489, 49.8387582], [16.9723398, 49.8384397], [16.9725126, 49.8383047], [16.9726519, 49.8381828], [16.9729164, 49.8379418], [16.9732836, 49.8375778], [16.9737302, 49.8374817], [16.9743088, 49.8374576], [16.9746482, 49.8373139], [16.975264, 49.8369869], [16.9753627, 49.8369605], [16.975543, 49.8367977], [16.9757725, 49.8364928], [16.9761892, 49.8361288], [16.976227, 49.836092], [16.9762253, 49.8359943], [16.9762216, 49.8359595], [16.9762383, 49.835664], [16.9765521, 49.8352079], [16.9766007, 49.8351153], [16.976725, 49.8349431], [16.9772436, 49.8342134], [16.9776318, 49.8338001], [16.9777463, 49.8335631], [16.9779048, 49.8333511], [16.977956, 49.8332533]]]]}}]}