{"type":"FeatureCollection","features":[{"type":"Feature","properties":{"name":"Praha"},"geometry":{"type":"Polygon","coordinates":[[[14.2244355,50.1029963],[14.2261051,50.1005892],[14.2265266,50.100392],[14.2328865,50.1022635],[14.2369525,50.1010259],[14.2388754,50.1020284],[14.2460756,50.1029104],[14.2471742,50.1027827],[14.2469095,50.1031038],[14.2498381,50.1034693],[14.2583441,50.0993837],[14.2546624,50.0986609],[14.2539956,50.0977813],[14.2544382,50.097063],[14.2553492,50.0967164],[14.2602647,50.0966066],[14.2609996,50.0962906],[14.2610944,50.0870952],[14.2651502,50.0872883],[14.2682714,50.0857469],[14.2687265,50.0860446],[14.2709591,50.0861371],[14.2726294,50.0875782],[14.273347,50.087619],[14.2744769,50.0857815],[14.2752539,50.0810719],[14.2819144,50.0816434],[14.2845716,50.0814296],[14.2853332,50.0812093],[14.2850094,50.0782609],[14.28792,50.0776651],[14.2879292,50.0772104],[14.2893735,50.0771366],[14.2892155,50.0767562],[14.2898301,50.0762276],[14.2901189,50.0749401],[14.2903731,50.0749355],[14.2901916,50.073178],[14.2844826,50.0735886],[14.2824327,50.0743046],[14.2810936,50.0732756],[14.2772618,50.072986],[14.2780263,50.0722834],[14.2775817,50.0721159],[14.2785556,50.0709193],[14.2782484,50.0708722],[14.2753003,50.0730871],[14.2667538,50.072628],[14.2580521,50.0715166],[14.2577988,50.070832],[14.2582573,50.0678255],[14.25911,50.067522],[14.2587145,50.0644236],[14.2541497,50.0631479],[14.2533074,50.0625654],[14.2475584,50.0622236],[14.2480852,50.0583091],[14.2501043,50.0576231],[14.2508469,50.0567694],[14.2555965,50.0570871],[14.2572299,50.0544227],[14.262304,50.0555304],[14.2643067,50.0523325],[14.267355,50.0530543],[14.270116,50.0542041],[14.2716323,50.0543186],[14.2714977,50.05308],[14.2726358,50.0506112],[14.2710008,50.0494528],[14.2682631,50.049138],[14.2681736,50.0486908],[14.2699466,50.0484359],[14.2710433,50.0469324],[14.270467,50.0464813],[14.2710012,50.0463126],[14.2698804,50.0433626],[14.2686422,50.0433361],[14.2692263,50.0427478],[14.2700997,50.040097],[14.2718606,50.0375878],[14.2741417,50.0357181],[14.2820643,50.0318925],[14.2872209,50.0279596],[14.2928275,50.025761],[14.297593,50.0245862],[14.2975722,50.0235558],[14.2991539,50.024418],[14.3003188,50.0246487],[14.3158709,50.0235953],[14.3156241,50.023263],[14.3160549,50.0228701],[14.3166679,50.0211558],[14.3165362,50.0199126],[14.315442,50.0172017],[14.3149045,50.0143728],[14.3126082,50.0129442],[14.3131756,50.0120445],[14.3117229,50.0092104],[14.3114577,50.006978],[14.3091413,50.007046],[14.3064277,50.0079528],[14.3029394,50.0112159],[14.3007933,50.0118141],[14.3004103,50.0109306],[14.3001366,50.0081715],[14.30053,50.0043801],[14.2991049,50.0040408],[14.2980434,50.002985],[14.2948377,50.0022104],[14.2974497,50.000622],[14.2993751,50.0003511],[14.2997705,49.9999917],[14.301838,49.9999485],[14.3005252,49.9985833],[14.301036,49.9977892],[14.3025579,49.9975064],[14.306243,49.997556],[14.3077008,49.9962399],[14.3072267,49.9954685],[14.3095186,49.9944659],[14.3101027,49.9938383],[14.3139613,49.9947832],[14.3151184,49.9922281],[14.3172117,49.9905461],[14.3172349,49.9900571],[14.3177707,49.9897116],[14.3181007,49.9888931],[14.3264715,49.991618],[14.3267638,49.9910062],[14.3282447,49.9917466],[14.3349811,49.9938485],[14.3363437,49.9937833],[14.3375064,49.9932883],[14.3385907,49.991553],[14.3427555,49.9906307],[14.3399113,49.9896127],[14.3353151,49.988665],[14.3347883,49.9879862],[14.3346571,49.9869363],[14.3350921,49.9864441],[14.3389486,49.9854985],[14.3387544,49.9852138],[14.3391577,49.9836603],[14.337585,49.9823912],[14.3385737,49.9819357],[14.3387422,49.9812756],[14.3395901,49.9807519],[14.335194,49.9785111],[14.3354886,49.9781169],[14.3346711,49.9775264],[14.3323413,49.9773057],[14.3326069,49.9758816],[14.3299338,49.9754165],[14.3300544,49.9752211],[14.3293363,49.9744913],[14.329944,49.974527],[14.3302094,49.9741786],[14.3278583,49.973202],[14.3268149,49.9718587],[14.3274645,49.9707322],[14.332299,49.9710301],[14.3351698,49.9729091],[14.3406194,49.9746139],[14.3426489,49.9748516],[14.3461789,49.9747107],[14.3449986,49.9736168],[14.3462557,49.9736947],[14.3468222,49.9733314],[14.3470757,49.9724752],[14.3457036,49.9713851],[14.344916,49.9676279],[14.3433919,49.9663539],[14.3412479,49.9657086],[14.3366373,49.9672442],[14.3346987,49.9675302],[14.3292319,49.9648505],[14.3272989,49.9632982],[14.3260947,49.9598489],[14.3250889,49.9587864],[14.3250386,49.9579351],[14.3254392,49.9572087],[14.3267682,49.9561732],[14.3308254,49.9550993],[14.3343125,49.9530497],[14.3366283,49.9506681],[14.3376345,49.9483835],[14.3408013,49.9486637],[14.3414342,49.9480737],[14.3428774,49.9475842],[14.3465928,49.9482459],[14.351663,49.9482098],[14.3536691,49.9477833],[14.3587366,49.9486837],[14.3603929,49.9474546],[14.3660917,49.9495313],[14.3669903,49.9502635],[14.367092,49.9512969],[14.3683756,49.9513236],[14.3716866,49.9503234],[14.373208,49.9471224],[14.3741299,49.9467653],[14.375082,49.9474947],[14.3768119,49.9466207],[14.3784659,49.9484017],[14.3797583,49.9492145],[14.3853959,49.9492428],[14.3859792,49.9495796],[14.3879707,49.9497837],[14.3889758,49.9480127],[14.3886654,49.9475882],[14.3890327,49.9466202],[14.3890496,49.9451745],[14.3908432,49.9444849],[14.3908451,49.9440457],[14.395562,49.9419006],[14.3965792,49.9429124],[14.3968649,49.9444156],[14.3949447,49.9491905],[14.3942296,49.9538976],[14.3951577,49.9573148],[14.3977322,49.9618964],[14.3991261,49.9678168],[14.3998842,49.967832],[14.4006472,49.9706693],[14.4012867,49.9709223],[14.4016663,49.9703309],[14.4024751,49.9705639],[14.4045407,49.9690037],[14.4086208,49.9678369],[14.4109897,49.9659652],[14.4142764,49.965489],[14.4165019,49.9640108],[14.4194183,49.9635636],[14.4242656,49.9638887],[14.4277435,49.9645],[14.4302341,49.966839],[14.4366145,49.9681717],[14.4386195,49.9681197],[14.4412642,49.9693379],[14.4427885,49.9708583],[14.4445941,49.9738632],[14.4485033,49.9737302],[14.4502846,49.9732977],[14.4536372,49.9718589],[14.4579874,49.9718225],[14.4622402,49.9707711],[14.4627252,49.9722051],[14.4624211,49.9722491],[14.4625192,49.9725303],[14.4641082,49.972691],[14.4663038,49.9810366],[14.4694754,49.9801095],[14.4694512,49.9798789],[14.4739923,49.9804035],[14.473704,49.9837523],[14.4745034,49.9832109],[14.4759475,49.9841097],[14.4762196,49.983954],[14.4807539,49.98519],[14.486985,49.9856871],[14.486729,49.986389],[14.4870376,49.9875848],[14.4845836,49.9874152],[14.4842357,49.9893914],[14.4848458,49.9900645],[14.4848877,49.9907061],[14.4839335,49.9924191],[14.5072536,49.9974772],[14.5093561,49.9938535],[14.5075143,49.9934731],[14.5081846,49.9921388],[14.5137466,49.992583],[14.5134214,49.9945336],[14.5175161,49.9951612],[14.5179512,49.9944175],[14.5189203,49.9948517],[14.5181927,49.9961205],[14.5193315,49.9962234],[14.5191339,49.9971001],[14.5243223,49.9974342],[14.5300192,50.0007153],[14.5256041,50.0038745],[14.5230338,50.0063527],[14.520994,50.0077216],[14.5230868,50.008418],[14.5274725,50.0108381],[14.5294734,50.010787],[14.5354842,50.011751],[14.540932,50.009892],[14.5423599,50.0086999],[14.5445364,50.0083985],[14.5462051,50.0087686],[14.5508521,50.0079867],[14.5515395,50.0086131],[14.5534669,50.0094627],[14.5537906,50.0099136],[14.5530152,50.0109982],[14.553692,50.0112945],[14.5545332,50.0109853],[14.5540219,50.0116282],[14.5542317,50.0121565],[14.5627521,50.0115863],[14.5635572,50.0112277],[14.5640792,50.0097357],[14.5675263,50.0094888],[14.5683172,50.0073516],[14.571647,50.0089682],[14.5723213,50.0099802],[14.5742867,50.0114962],[14.5760895,50.0134963],[14.582393,50.0163634],[14.5817136,50.010951],[14.5870869,50.0114527],[14.5884271,50.0091681],[14.5891623,50.008657],[14.5917509,50.0097393],[14.5928779,50.0093739],[14.5944084,50.0100508],[14.5949642,50.009348],[14.5946254,50.0081045],[14.5949721,50.007143],[14.5966403,50.0080778],[14.6022636,50.0094315],[14.6023448,50.0079279],[14.6039007,50.0019258],[14.6078305,50.002937],[14.6079501,50.0023901],[14.6093292,50.0015735],[14.608253,50.0009865],[14.6085898,50.000106],[14.6103406,49.9986363],[14.6112224,49.9985244],[14.6122667,49.9989026],[14.6113506,49.9997533],[14.6134893,49.9999981],[14.6155326,49.998625],[14.6168286,49.9982514],[14.6169833,49.9985192],[14.6191943,49.9975247],[14.6194911,49.9986151],[14.6213237,49.9983928],[14.6214094,49.9987004],[14.6223474,49.9986156],[14.6291605,49.9955374],[14.6339958,49.9961302],[14.6366222,49.9954181],[14.6387062,49.9952243],[14.6401518,49.9944411],[14.6469229,49.9987546],[14.6432068,50.0012825],[14.6392177,50.0052943],[14.6382891,50.0057827],[14.6396551,50.0063569],[14.6424157,50.0060653],[14.6429408,50.0061275],[14.6426958,50.0064809],[14.6438141,50.0065389],[14.645105,50.0055453],[14.6453568,50.0051561],[14.6451997,50.0047838],[14.6454958,50.0047342],[14.6458035,50.0053034],[14.6468102,50.0059024],[14.6498044,50.0087938],[14.6577854,50.0043495],[14.6605207,50.0066074],[14.6618112,50.0073011],[14.6626193,50.0084011],[14.6619619,50.008571],[14.6616187,50.0093008],[14.6628637,50.0105095],[14.6627836,50.0116411],[14.661277,50.0123992],[14.6615855,50.0127833],[14.6630386,50.0131605],[14.663194,50.0135887],[14.6653032,50.0134108],[14.6660104,50.0128196],[14.6670776,50.013203],[14.6672758,50.0135721],[14.6685483,50.0134346],[14.6690172,50.0172396],[14.669537,50.0188407],[14.6680339,50.0189493],[14.6561272,50.0309551],[14.6569571,50.0378173],[14.660824,50.0378018],[14.6668511,50.0385277],[14.6630773,50.0413924],[14.66148,50.0430182],[14.6601469,50.044958],[14.6538674,50.0492542],[14.6519771,50.0473752],[14.6496065,50.0456515],[14.6479462,50.0436683],[14.6440386,50.0421831],[14.6436845,50.0441676],[14.6402196,50.0484131],[14.6409837,50.0488478],[14.640629,50.0512404],[14.6412144,50.052757],[14.6413491,50.0541306],[14.6412588,50.0547578],[14.6406006,50.0549884],[14.6401916,50.0568947],[14.6430484,50.0575557],[14.6440127,50.0582594],[14.6458266,50.0587354],[14.6448369,50.0600564],[14.652135,50.059538],[14.6514504,50.0619535],[14.6581022,50.061066],[14.6589441,50.0617405],[14.6584146,50.0616903],[14.6584346,50.0619568],[14.6577962,50.0621218],[14.6581693,50.0622841],[14.6671358,50.0637853],[14.6696957,50.0654383],[14.6747647,50.067558],[14.6766921,50.0681854],[14.6771839,50.0679674],[14.6799068,50.0690972],[14.682786,50.0693274],[14.6891374,50.0711816],[14.6908607,50.0720182],[14.6934432,50.0718322],[14.6999919,50.0721289],[14.7017566,50.076568],[14.7025917,50.0765501],[14.7067867,50.0870194],[14.7053271,50.0883046],[14.7053461,50.0901712],[14.7039175,50.0917426],[14.696128,50.0943318],[14.6941939,50.0942861],[14.6926917,50.0954609],[14.6886937,50.0963003],[14.688646,50.0988438],[14.6911956,50.0998951],[14.6903288,50.1006277],[14.6768033,50.1016454],[14.6718895,50.1031089],[14.6689796,50.1032718],[14.6685944,50.103972],[14.665884,50.1026521],[14.6646457,50.1037123],[14.6615531,50.1051526],[14.6606212,50.1065345],[14.6574355,50.1065009],[14.6567598,50.1098902],[14.6595831,50.1206625],[14.658604,50.1205203],[14.6591154,50.1226041],[14.6523528,50.1235258],[14.6500732,50.1234711],[14.6475196,50.1241833],[14.645382,50.1234102],[14.6406277,50.1235296],[14.6397691,50.1241681],[14.6384433,50.1236074],[14.6352008,50.1239183],[14.6354185,50.1263749],[14.6344404,50.1280653],[14.6322995,50.1299032],[14.6217708,50.1278296],[14.621504,50.1278335],[14.620589,50.1294988],[14.6086335,50.1271149],[14.607199,50.1278272],[14.6005164,50.129523],[14.5952125,50.1339214],[14.5938719,50.1357511],[14.5923328,50.138741],[14.5913845,50.1394284],[14.5897331,50.1396718],[14.591358,50.1426913],[14.5886258,50.1439514],[14.5880077,50.1443999],[14.5877286,50.1452435],[14.5883186,50.1460518],[14.5884301,50.1471545],[14.5931774,50.1476305],[14.592517,50.1479033],[14.5928993,50.1483975],[14.5925579,50.1484492],[14.5934964,50.1500718],[14.5947364,50.1508405],[14.597077,50.1534453],[14.5983448,50.154032],[14.5990507,50.1538969],[14.5990028,50.1541328],[14.5934782,50.1537886],[14.5893233,50.1542938],[14.584351,50.1536431],[14.5837029,50.1526818],[14.5818383,50.1514267],[14.5785323,50.1502016],[14.5783262,50.1508137],[14.5735973,50.1499347],[14.5687846,50.1500378],[14.568589,50.1508496],[14.567548,50.1507752],[14.5671185,50.1509951],[14.5673303,50.1512323],[14.5661556,50.1516488],[14.5652021,50.1506981],[14.5632297,50.1501702],[14.5604828,50.1553647],[14.5627472,50.1560274],[14.5609936,50.1615751],[14.5606255,50.1615755],[14.5606238,50.1620081],[14.5530739,50.1637197],[14.5535839,50.1642458],[14.550447,50.164824],[14.5505391,50.1661221],[14.5478389,50.1653779],[14.5449259,50.1639874],[14.5438975,50.1640044],[14.542381,50.1625767],[14.5403349,50.1650878],[14.5388387,50.1633446],[14.5342355,50.1615652],[14.5317132,50.1653798],[14.5305116,50.1661902],[14.5306921,50.166588],[14.5326164,50.1674735],[14.5314745,50.1709293],[14.5313005,50.1725034],[14.5324832,50.1771831],[14.5268552,50.1774302],[14.5265885,50.1765162],[14.5195803,50.1748765],[14.5189214,50.17476],[14.5187172,50.1751552],[14.5165974,50.1746339],[14.5164182,50.1750642],[14.5090714,50.1741607],[14.506904,50.1714363],[14.4921868,50.17235],[14.4795218,50.1722942],[14.4799983,50.1718351],[14.4801495,50.1698783],[14.4690423,50.1698074],[14.4669127,50.1695438],[14.4667688,50.1654264],[14.4638436,50.1648787],[14.4637192,50.1612285],[14.4641231,50.159923],[14.4604364,50.1589934],[14.4521446,50.1583678],[14.4518653,50.1578317],[14.4366841,50.1575069],[14.4360049,50.1590913],[14.4281375,50.1576674],[14.4291815,50.1540057],[14.4289771,50.1535113],[14.4276761,50.1531466],[14.423131,50.1527958],[14.4200136,50.1529649],[14.4206908,50.1503338],[14.422502,50.1498333],[14.4211107,50.1493825],[14.4191261,50.1494073],[14.4174316,50.1490307],[14.4171659,50.1485728],[14.4161862,50.1483165],[14.4125717,50.1482296],[14.4091525,50.1475785],[14.4077201,50.147605],[14.4071204,50.1469772],[14.3999734,50.1479062],[14.3991472,50.1433746],[14.3970345,50.1435221],[14.3966987,50.1424454],[14.3956569,50.1423312],[14.3957122,50.1420518],[14.3949016,50.141429],[14.3936795,50.14125],[14.3920497,50.1417845],[14.3921945,50.1419983],[14.3911145,50.1439606],[14.3874249,50.1454337],[14.3877003,50.1457846],[14.3867677,50.1462381],[14.3862008,50.1464096],[14.385796,50.1459468],[14.3848779,50.1469262],[14.3817625,50.1469541],[14.3808936,50.1465153],[14.3793686,50.1464018],[14.3750382,50.1472903],[14.3723814,50.1474936],[14.3717569,50.1479843],[14.3679465,50.1473545],[14.3667985,50.1474635],[14.3657037,50.1480324],[14.3621266,50.1466064],[14.3600632,50.1440403],[14.3587187,50.1434363],[14.3565608,50.1410812],[14.3560896,50.1411726],[14.3560454,50.1406293],[14.357788,50.1405714],[14.3574303,50.1392881],[14.3553471,50.1386624],[14.3549592,50.1378868],[14.3541236,50.137526],[14.3544189,50.1362567],[14.3561548,50.1366347],[14.3568738,50.1314044],[14.3574439,50.1296478],[14.3600421,50.1295213],[14.3576597,50.1273174],[14.3556407,50.1246523],[14.3588116,50.1213115],[14.3612434,50.1178977],[14.3604025,50.1175067],[14.3615762,50.1162415],[14.3607835,50.1160189],[14.3531506,50.116107],[14.3431968,50.11671],[14.341134,50.1165423],[14.3393705,50.1168983],[14.3331869,50.1165126],[14.3276429,50.116752],[14.3206068,50.1152415],[14.3203448,50.1166534],[14.3179749,50.1189037],[14.3175702,50.1188633],[14.3170966,50.1210054],[14.3156962,50.1229456],[14.3155769,50.1271022],[14.3158782,50.1286167],[14.3106519,50.1280371],[14.3103247,50.1277719],[14.3082464,50.1282406],[14.3061618,50.1291671],[14.3056377,50.13014],[14.3042847,50.129375],[14.3024335,50.1300768],[14.3021626,50.1295754],[14.3013302,50.1296448],[14.3004653,50.1286603],[14.3007478,50.1284325],[14.3003154,50.1277405],[14.3010441,50.127378],[14.3002026,50.1266435],[14.2946854,50.1247846],[14.295124,50.124653],[14.2957521,50.1223864],[14.2974491,50.1209639],[14.2971713,50.1205942],[14.2956742,50.119657],[14.2920649,50.1183061],[14.2883495,50.1162211],[14.2846626,50.1154697],[14.2788382,50.1190811],[14.2600445,50.1134439],[14.2571607,50.1145639],[14.2560393,50.1132815],[14.2563617,50.1131585],[14.2560759,50.1125388],[14.2500356,50.1107913],[14.2451109,50.1099769],[14.2423826,50.111172],[14.2404917,50.1112976],[14.2388054,50.1117993],[14.2380133,50.1115034],[14.2370135,50.1102209],[14.2376092,50.1087958],[14.2389903,50.1080092],[14.2393227,50.1072816],[14.2374235,50.1067368],[14.2363232,50.1073428],[14.2310141,50.1057497],[14.2305009,50.1050892],[14.2255938,50.1040528],[14.2244355,50.1029963]]]}}]}